{"type":"FeatureCollection","features":[{"type":"Feature","id":1,"geometry":{"type":"Point","coordinates":[-71.3975830078125,41.8260307312012]},"properties":{"Property_Code":100326,"Property_Name":"Hope St 170","Property_Abbr":"HOPE170","Address_Line_1":"170 Hope St","AlL_Restrooms___vlookup":"114 | 116 | 201 | 301","Single_Sex____vlookup":"201 | 301","Gender_Inclusive___vlookup":null,"single_occupancy___vlookup":"114 | 116","Long":-71.39758,"Lat":41.82603,"FID":1}},{"type":"Feature","id":2,"geometry":{"type":"Point","coordinates":[-71.3991241455078,41.8275985717773]},"properties":{"Property_Code":100332,"Property_Name":"Waterman St 118-120","Property_Abbr":"WATER118","Address_Line_1":"118-120 Waterman St","AlL_Restrooms___vlookup":"122A | 122B | 210 | 212","Single_Sex____vlookup":"122A | 122B","Gender_Inclusive___vlookup":"210 | 212","single_occupancy___vlookup":null,"Long":-71.39912,"Lat":41.8276,"FID":2}},{"type":"Feature","id":3,"geometry":{"type":"Point","coordinates":[-71.3974685668945,41.8302345275879]},"properties":{"Property_Code":100227,"Property_Name":"Nelson Fitness Center","Property_Abbr":"NELSONFIT","Address_Line_1":"225 Hope St","AlL_Restrooms___vlookup":"001 | 003 | 004 | 004A | 004B | 004C | 004D | 004E | 004F | 004G | 004H | 004M | 004V | 005 | 009 | 010 | 010A | 010B | 010C | 010E | 010F | 010G | 010H | 010J | 010K | 010L | 011 | 106 | 107 | 117 | 119 | 120 | 122 | 123 | 201 | 202 | 203","Single_Sex____vlookup":"003 | 004 | 004A | 004B | 004C | 004D | 004E | 004F | 004G | 004H | 004M | 004V | 005 | 009 | 010 | 010A | 010B | 010C | 010E | 010F | 010G | 010H | 010J | 010K | 010L | 011 | 106 | 107 | 120","Gender_Inclusive___vlookup":"122 | 123 | 201 | 203","single_occupancy___vlookup":"001 | 117 | 119 | 202 | 203","Long":-71.39747,"Lat":41.83023,"FID":3}},{"type":"Feature","id":4,"geometry":{"type":"Point","coordinates":[-71.3989334106445,41.8313789367676]},"properties":{"Property_Code":100021,"Property_Name":"Meehan Auditorium","Property_Abbr":"MEEHAN","Address_Line_1":"235 Hope St","AlL_Restrooms___vlookup":"013 | 013A | 015 | 015A | 015B | 016 | 018 | 024 | 025 | 026 | 026A | 026B | 028 | 028A | 125 | 132 | 134 | 147 | 148 | 149 | 151 | 152 | 153 | 154 | 159 | 161 | 162 | 163 | 164 | 166 | 167","Single_Sex____vlookup":"013 | 013A | 015 | 015A | 015B | 016 | 018 | 024 | 025 | 026 | 026A | 026B | 028 | 028A | 125 | 132 | 134 | 147 | 148 | 149 | 151 | 152 | 153 | 154 | 159 | 161 | 162 | 163 | 164 | 166 | 167","Gender_Inclusive___vlookup":null,"single_occupancy___vlookup":null,"Long":-71.39893,"Lat":41.83138,"FID":4}},{"type":"Feature","id":5,"geometry":{"type":"Point","coordinates":[-71.3981399536133,41.8316955566406]},"properties":{"Property_Code":100267,"Property_Name":"Pizzitola","Property_Abbr":"PIZZITOLA","Address_Line_1":"233 Hope St","AlL_Restrooms___vlookup":"101A | 101B | 101C | 103A | 103B | 103C | 103D | 104A | 104B | 104C | 104D | 108 | 108A | 108B | 108C | 110 | 110A | 110B | 110C | 114 | 114A | 114B | 114C | 115 | 115A | 115B | 115C | 118 | 119 | 120 | 121 | 122 | 123 | 124 | 138 | 139 | 215 | 219 | 220","Single_Sex____vlookup":"101A | 101B | 101C | 103A | 103B | 103C | 103D | 104A | 104B | 104C | 104D | 108 | 108A | 108B | 108C | 110 | 110A | 110B | 110C | 114 | 114A | 114B | 114C | 115 | 115A | 115B | 115C | 118 | 119 | 120 | 121 | 122 | 123 | 124 | 138 | 139 | 215 | 219 | 220","Gender_Inclusive___vlookup":null,"single_occupancy___vlookup":null,"Long":-71.39814,"Lat":41.8317,"FID":5}},{"type":"Feature","id":6,"geometry":{"type":"Point","coordinates":[-71.3973770141602,41.831974029541]},"properties":{"Property_Code":100093,"Property_Name":"Central Heat Plant","Property_Abbr":"CNTRLHEAT","Address_Line_1":"235 Lloyd Ave","AlL_Restrooms___vlookup":"203 | 204","Single_Sex____vlookup":"203 | 204","Gender_Inclusive___vlookup":null,"single_occupancy___vlookup":null,"Long":-71.39738,"Lat":41.83197,"FID":6}},{"type":"Feature","id":7,"geometry":{"type":"Point","coordinates":[-71.3954620361328,41.8329277038574]},"properties":{"Property_Code":100135,"Property_Name":"Andrews Memorial Building","Property_Abbr":"ANDREWSMEM","Address_Line_1":"295 Lloyd Ave","AlL_Restrooms___vlookup":"105 | 107 | 120 | 121 | 122 | 214 | 218 | 315 | 317","Single_Sex____vlookup":"105 | 107 | 120 | 121 | 122 | 214 | 218 | 315 | 317","Gender_Inclusive___vlookup":null,"single_occupancy___vlookup":null,"Long":-71.39546,"Lat":41.83293,"FID":7}},{"type":"Feature","id":8,"geometry":{"type":"Point","coordinates":[-71.3973083496094,41.8310852050781]},"properties":{"Property_Code":100059,"Property_Name":"Olney-Margolies Athletic Center","Property_Abbr":"OMAC","Address_Line_1":"229 Hope St","AlL_Restrooms___vlookup":"001 | 001A | 002 | 004 | 029 | 030 | 031 | 032 | 033 | 033A | 033B | 033C | 035 | 036 | 037 | 037A | 118 | 120 | 120A | 121 | 122 | 123 | 123A | 124 | 126 | 127","Single_Sex____vlookup":"001 | 001A | 029 | 030 | 031 | 032 | 033 | 033A | 033B | 033C | 035 | 036 | 037 | 037A | 118 | 120 | 120A | 121 | 122 | 123 | 123A | 124 | 126 | 127","Gender_Inclusive___vlookup":null,"single_occupancy___vlookup":"002 | 004","Long":-71.39731,"Lat":41.83109,"FID":8}},{"type":"Feature","id":13,"geometry":{"type":"Point","coordinates":[-71.4015502929688,41.8296127319336]},"properties":{"Property_Code":100126,"Property_Name":"Woolley Hall: Pembroke Quad","Property_Abbr":"WOOLLEYHAL","Address_Line_1":"202 Meeting St","AlL_Restrooms___vlookup":"001 | 008 | 009","Single_Sex____vlookup":"008 | 009","Gender_Inclusive___vlookup":null,"single_occupancy___vlookup":"1","Long":-71.40155,"Lat":41.82961,"FID":13}},{"type":"Feature","id":16,"geometry":{"type":"Point","coordinates":[-71.4027786254883,41.829662322998]},"properties":{"Property_Code":100170,"Property_Name":"Smith-Buonanno Hall","Property_Abbr":"SMITH-BUON","Address_Line_1":"95 Cushing St","AlL_Restrooms___vlookup":"007 | 103","Single_Sex____vlookup":"103","Gender_Inclusive___vlookup":null,"single_occupancy___vlookup":"7","Long":-71.40278,"Lat":41.82966,"FID":16}},{"type":"Feature","id":27,"geometry":{"type":"Point","coordinates":[-71.3999404907227,41.8302688598633]},"properties":{"Property_Code":100118,"Property_Name":"Brook St 456","Property_Abbr":"BROOK456","Address_Line_1":"456 Brook St","AlL_Restrooms___vlookup":"400K","Single_Sex____vlookup":"400K","Gender_Inclusive___vlookup":null,"single_occupancy___vlookup":null,"Long":-71.39994,"Lat":41.83027,"FID":27}},{"type":"Feature","id":30,"geometry":{"type":"Point","coordinates":[-71.4028015136719,41.8292083740234]},"properties":{"Property_Code":100195,"Property_Name":"Pembroke Hall","Property_Abbr":"PEMBROKE","Address_Line_1":"172 Meeting St","AlL_Restrooms___vlookup":"012 | 013 | 302 | 303","Single_Sex____vlookup":"012 | 013 | 302 | 303","Gender_Inclusive___vlookup":null,"single_occupancy___vlookup":null,"Long":-71.4028,"Lat":41.82921,"FID":30}},{"type":"Feature","id":32,"geometry":{"type":"Point","coordinates":[-71.4056625366211,41.8299446105957]},"properties":{"Property_Code":100253,"Property_Name":"Rochambeau House","Property_Abbr":"ROCHAMBEAU","Address_Line_1":"84 Prospect St","AlL_Restrooms___vlookup":"013 | 102A | 112 | 122 | 227 | 240A | 307 | 307A | 308","Single_Sex____vlookup":"102A | 122 | 307","Gender_Inclusive___vlookup":"112 | 227 | 240A | 307A | 308","single_occupancy___vlookup":"13","Long":-71.40566,"Lat":41.82994,"FID":32}},{"type":"Feature","id":33,"geometry":{"type":"Point","coordinates":[-71.3995132446289,41.830005645752]},"properties":{"Property_Code":100167,"Property_Name":"Pembroke Field House","Property_Abbr":"PEMFLDHSE","Address_Line_1":"171 Cushing St","AlL_Restrooms___vlookup":"104 | 105 | 104 | 105","Single_Sex____vlookup":"104 | 104 | 105","Gender_Inclusive___vlookup":null,"single_occupancy___vlookup":"105","Long":-71.39951,"Lat":41.83001,"FID":33}},{"type":"Feature","id":34,"geometry":{"type":"Point","coordinates":[-71.3979797363281,41.8297500610351]},"properties":{"Property_Code":100196,"Property_Name":"Stimson Ave 002","Property_Abbr":"STIMSON002","Address_Line_1":"2 Stimson Ave","AlL_Restrooms___vlookup":"100A | 204 | 205A | 206 | 308","Single_Sex____vlookup":"205A","Gender_Inclusive___vlookup":"100A | 204 | 308","single_occupancy___vlookup":"206","Long":-71.39798,"Lat":41.82975,"FID":34}},{"type":"Feature","id":35,"geometry":{"type":"Point","coordinates":[-71.4005432128906,41.8293228149414]},"properties":{"Property_Code":100318,"Property_Name":"Thayer St 271","Property_Abbr":"THAYER271","Address_Line_1":"271 Thayer St","AlL_Restrooms___vlookup":"003 | 005 | 205","Single_Sex____vlookup":"003 | 005","Gender_Inclusive___vlookup":null,"single_occupancy___vlookup":"205","Long":-71.40054,"Lat":41.82932,"FID":35}},{"type":"Feature","id":36,"geometry":{"type":"Point","coordinates":[-71.4023971557617,41.8285675048828]},"properties":{"Property_Code":100002,"Property_Name":"BioMed Center","Property_Abbr":"BIOMEDACF","Address_Line_1":"173 Meeting St","AlL_Restrooms___vlookup":"033 | 033A | 033B | 034 | 035 | 035A | 149 | 249 | 349 | 449 | 551","Single_Sex____vlookup":null,"Gender_Inclusive___vlookup":"249 | 349 | 449 | 551","single_occupancy___vlookup":"033 | 033A | 033B | 034 | 035 | 035A | 149","Long":-71.4024,"Lat":41.82857,"FID":36}},{"type":"Feature","id":37,"geometry":{"type":"Point","coordinates":[-71.4021987915039,41.8286743164063]},"properties":{"Property_Code":100117,"Property_Name":"BioMed Grimshaw-Gudewicz","Property_Abbr":"BIOMEDGG","Address_Line_1":"175 Meeting St","AlL_Restrooms___vlookup":"085 | 085B | 087 | 181C | 270A | 270B | 272A | 278A | 280A | 280B | 300K | 500K","Single_Sex____vlookup":null,"Gender_Inclusive___vlookup":null,"single_occupancy___vlookup":"085 | 085B | 087 | 181C | 270A | 270B | 272A | 278A | 280A | 280B | 300K | 500K","Long":-71.4022,"Lat":41.82867,"FID":37}},{"type":"Feature","id":39,"geometry":{"type":"Point","coordinates":[-71.4035797119141,41.8280487060547]},"properties":{"Property_Code":100026,"Property_Name":"Hillel House","Property_Abbr":"HILLELHSE","Address_Line_1":"80 Brown St","AlL_Restrooms___vlookup":"113 | 114 | 123 | 124 | 209 | 210 | 211 | 223 | 225 | 312","Single_Sex____vlookup":"113 | 114 | 123 | 124 | 210 | 211","Gender_Inclusive___vlookup":"209 | 223 | 225","single_occupancy___vlookup":"312","Long":-71.40358,"Lat":41.82805,"FID":39}},{"type":"Feature","id":40,"geometry":{"type":"Point","coordinates":[-71.4014587402344,41.828254699707]},"properties":{"Property_Code":100305,"Property_Name":"Granoff Center For The Creative Arts","Property_Abbr":"GRNFCAC","Address_Line_1":"154 Angell St","AlL_Restrooms___vlookup":"011A | 012 | 121 | 123 | N340 | N342 | N440 | N442 | S401","Single_Sex____vlookup":"121 | 123 | N340 | N342 | N440 | N442","Gender_Inclusive___vlookup":"012 | S401","single_occupancy___vlookup":"011A","Long":-71.40146,"Lat":41.82825,"FID":40}},{"type":"Feature","id":41,"geometry":{"type":"Point","coordinates":[-71.4010162353516,41.828311920166]},"properties":{"Property_Code":100144,"Property_Name":"Angell St 164","Property_Abbr":"ANGELL164","Address_Line_1":"164 Angell St","AlL_Restrooms___vlookup":"001A | 001B | 001C | 1M00C | 241 | 245 | 246 | 341 | 345 | 346 | 347 | 441 | 445 | 446","Single_Sex____vlookup":"001B | 001C | 241 | 246 | 341 | 346 | 441 | 446","Gender_Inclusive___vlookup":"245 | 345 | 347 | 445","single_occupancy___vlookup":"001A | 1M00C","Long":-71.40102,"Lat":41.82831,"FID":41}},{"type":"Feature","id":42,"geometry":{"type":"Point","coordinates":[-71.4010772705078,41.8278541564941]},"properties":{"Property_Code":100283,"Property_Name":"Hemisphere Bldg","Property_Abbr":"HEMISPHERE","Address_Line_1":"167 Angell St","AlL_Restrooms___vlookup":"011A | 011D | 104 | 106 | 216 | 312 | 314","Single_Sex____vlookup":"011A | 011D","Gender_Inclusive___vlookup":"104 | 106 | 216 | 312 | 314","single_occupancy___vlookup":null,"Long":-71.40108,"Lat":41.82785,"FID":42}},{"type":"Feature","id":43,"geometry":{"type":"Point","coordinates":[-71.4012908935547,41.8274078369141]},"properties":{"Property_Code":100169,"Property_Name":"Lippitt House","Property_Abbr":"LIPPITTHSE","Address_Line_1":"96 Waterman St","AlL_Restrooms___vlookup":"105 | 207","Single_Sex____vlookup":null,"Gender_Inclusive___vlookup":"105 | 207","single_occupancy___vlookup":null,"Long":-71.40129,"Lat":41.82741,"FID":43}},{"type":"Feature","id":44,"geometry":{"type":"Point","coordinates":[-71.4015274047852,41.8273811340332]},"properties":{"Property_Code":100293,"Property_Name":"Waterman St 094","Property_Abbr":"WATER094","Address_Line_1":"94 Waterman St","AlL_Restrooms___vlookup":"001A | 103 | 201A | 201B | 208 | 303","Single_Sex____vlookup":"208 | 303","Gender_Inclusive___vlookup":null,"single_occupancy___vlookup":"001A | 103 | 201A | 201B","Long":-71.40153,"Lat":41.82738,"FID":44}},{"type":"Feature","id":45,"geometry":{"type":"Point","coordinates":[-71.4021911621094,41.8276557922363]},"properties":{"Property_Code":100211,"Property_Name":"Urban Environmental Lab","Property_Abbr":"UEL","Address_Line_1":"135 Angell St","AlL_Restrooms___vlookup":"100B | 100C | 101A | 200A | 200B | 206A","Single_Sex____vlookup":"200B","Gender_Inclusive___vlookup":"100B | 100C | 101A | 200A | 206A","single_occupancy___vlookup":null,"Long":-71.40219,"Lat":41.82766,"FID":45}},{"type":"Feature","id":46,"geometry":{"type":"Point","coordinates":[-71.4028244018555,41.827449798584]},"properties":{"Property_Code":100031,"Property_Name":"Page-Robinson Hall","Property_Abbr":"PAGEROBHLL","Address_Line_1":"69 Brown St","AlL_Restrooms___vlookup":"112 | 124 | 206 | 207 | 306 | 307 | 406 | 407 | 506 | 507","Single_Sex____vlookup":"206 | 207 | 306 | 307 | 406 | 407 | 506 | 507","Gender_Inclusive___vlookup":null,"single_occupancy___vlookup":"112 | 124","Long":-71.40282,"Lat":41.82745,"FID":46}},{"type":"Feature","id":48,"geometry":{"type":"Point","coordinates":[-71.4034423828125,41.8275756835937]},"properties":{"Property_Code":100162,"Property_Name":"Brown St 070","Property_Abbr":"BROWN070","Address_Line_1":"70 Brown St","AlL_Restrooms___vlookup":"131 | 133 | 212 | 214 | 312 | 314 | 410 | 412","Single_Sex____vlookup":"131 | 133 | 212 | 214 | 312 | 314 | 410 | 412","Gender_Inclusive___vlookup":null,"single_occupancy___vlookup":null,"Long":-71.40344,"Lat":41.82758,"FID":48}},{"type":"Feature","id":49,"geometry":{"type":"Point","coordinates":[-71.4033508300781,41.8273735046387]},"properties":{"Property_Code":100140,"Property_Name":"Brown St 068.5","Property_Abbr":"BROWN068H","Address_Line_1":"68.5 Brown St","AlL_Restrooms___vlookup":"106 | 108 | 206 | 208","Single_Sex____vlookup":null,"Gender_Inclusive___vlookup":"106 | 108 | 206 | 208","single_occupancy___vlookup":null,"Long":-71.40335,"Lat":41.82737,"FID":49}},{"type":"Feature","id":50,"geometry":{"type":"Point","coordinates":[-71.4033050537109,41.827220916748]},"properties":{"Property_Code":100151,"Property_Name":"Partridge Hall & Annex","Property_Abbr":"PARTRIDGE","Address_Line_1":"68 Brown St","AlL_Restrooms___vlookup":"012 | 110 | 210 | 310","Single_Sex____vlookup":"012 | 210","Gender_Inclusive___vlookup":"110 | 310","single_occupancy___vlookup":null,"Long":-71.40331,"Lat":41.82722,"FID":50}},{"type":"Feature","id":51,"geometry":{"type":"Point","coordinates":[-71.4038391113281,41.8271789550781]},"properties":{"Property_Code":100125,"Property_Name":"Waterman St 070","Property_Abbr":"WATER070","Address_Line_1":"70 Waterman St","AlL_Restrooms___vlookup":"107 | 108 | 205 | 307","Single_Sex____vlookup":"107 | 108","Gender_Inclusive___vlookup":"205 | 307","single_occupancy___vlookup":null,"Long":-71.40384,"Lat":41.82718,"FID":51}},{"type":"Feature","id":52,"geometry":{"type":"Point","coordinates":[-71.4040679931641,41.8272666931152]},"properties":{"Property_Code":100185,"Property_Name":"Mencoff Hall","Property_Abbr":"MENCOFF","Address_Line_1":"68 Waterman St","AlL_Restrooms___vlookup":"002 | 003 | 106 | 201 | 202","Single_Sex____vlookup":null,"Gender_Inclusive___vlookup":"002 | 003 | 106 | 201 | 202","single_occupancy___vlookup":null,"Long":-71.40407,"Lat":41.82727,"FID":52}},{"type":"Feature","id":53,"geometry":{"type":"Point","coordinates":[-71.4042129516602,41.8274612426758]},"properties":{"Property_Code":100132,"Property_Name":"Fones Alley 008","Property_Abbr":"FONES008","Address_Line_1":"8 Fones Alley","AlL_Restrooms___vlookup":"008 | 010 | 106","Single_Sex____vlookup":null,"Gender_Inclusive___vlookup":"008 | 010 | 106","single_occupancy___vlookup":null,"Long":-71.40421,"Lat":41.82746,"FID":53}},{"type":"Feature","id":54,"geometry":{"type":"Point","coordinates":[-71.39990234375,41.8279609680176]},"properties":{"Property_Code":100186,"Property_Name":"Angell St 195","Property_Abbr":"ANGELL195","Address_Line_1":"195 Angell St","AlL_Restrooms___vlookup":"004 | 008 | 106 | 108","Single_Sex____vlookup":"004 | 008","Gender_Inclusive___vlookup":"106 | 108","single_occupancy___vlookup":null,"Long":-71.3999,"Lat":41.82796,"FID":54}},{"type":"Feature","id":55,"geometry":{"type":"Point","coordinates":[-71.4044570922852,41.8275833129883]},"properties":{"Property_Code":100272,"Property_Name":"Corliss-Brackett","Property_Abbr":"CORLISS-B","Address_Line_1":"45 Prospect St","AlL_Restrooms___vlookup":"009 | 109 | 112 | 114 | 209 | 309","Single_Sex____vlookup":"109 | 112 | 114","Gender_Inclusive___vlookup":null,"single_occupancy___vlookup":"009 | 209 | 309","Long":-71.40446,"Lat":41.82758,"FID":55}},{"type":"Feature","id":56,"geometry":{"type":"Point","coordinates":[-71.4023208618164,41.8273086547852]},"properties":{"Property_Code":100048,"Property_Name":"Norwood House","Property_Abbr":"NORWOOD","Address_Line_1":"82 Waterman St","AlL_Restrooms___vlookup":"008 | 112 | 301A","Single_Sex____vlookup":null,"Gender_Inclusive___vlookup":"008 | 112 | 301A","single_occupancy___vlookup":null,"Long":-71.40232,"Lat":41.82731,"FID":56}},{"type":"Feature","id":57,"geometry":{"type":"Point","coordinates":[-71.4021453857422,41.8296203613281]},"properties":{"Property_Code":100076,"Property_Name":"Alumnae Hall","Property_Abbr":"ALUMNAE","Address_Line_1":"194 Meeting St","AlL_Restrooms___vlookup":"003 | 005 | 019 | 021A | 109 | 121 | 237 | A00A","Single_Sex____vlookup":"003 | 005 | 019 | 021A | 109 | 121 | 237 | A00A","Gender_Inclusive___vlookup":null,"single_occupancy___vlookup":null,"Long":-71.40215,"Lat":41.82962,"FID":57}},{"type":"Feature","id":60,"geometry":{"type":"Point","coordinates":[-71.4018020629883,41.8287734985352]},"properties":{"Property_Code":100114,"Property_Name":"Sidney E. Frank Hall Life Sciences","Property_Abbr":"SFRANKHLSB","Address_Line_1":"185 Meeting St","AlL_Restrooms___vlookup":"112 | 114 | 147 | 149 | 212 | 214 | 247 | 249 | 312 | 314 | 347 | 351 | 447 | 449 | 547 | 549","Single_Sex____vlookup":"112 | 114 | 147 | 149 | 212 | 214 | 247 | 249 | 312 | 314 | 347 | 447 | 449 | 547 | 549","Gender_Inclusive___vlookup":null,"single_occupancy___vlookup":"351","Long":-71.4018,"Lat":41.82877,"FID":60}},{"type":"Feature","id":61,"geometry":{"type":"Point","coordinates":[-71.4059295654297,41.8263053894043]},"properties":{"Property_Code":100019,"Property_Name":"Gerard House, Samuel N.","Property_Abbr":"GERARDHSE","Address_Line_1":"54 College St","AlL_Restrooms___vlookup":"109 | 207 | 209 | 309","Single_Sex____vlookup":"207 | 209","Gender_Inclusive___vlookup":"109 | 309","single_occupancy___vlookup":null,"Long":-71.40593,"Lat":41.82631,"FID":61}},{"type":"Feature","id":62,"geometry":{"type":"Point","coordinates":[-71.4062576293945,41.8262596130371]},"properties":{"Property_Code":100178,"Property_Name":"MacFarlane House","Property_Abbr":"MACFARLANE","Address_Line_1":"48 College St","AlL_Restrooms___vlookup":"107 | 207 | 212","Single_Sex____vlookup":"207 | 212","Gender_Inclusive___vlookup":"107","single_occupancy___vlookup":null,"Long":-71.40626,"Lat":41.82626,"FID":62}},{"type":"Feature","id":63,"geometry":{"type":"Point","coordinates":[-71.4054183959961,41.826488494873]},"properties":{"Property_Code":100020,"Property_Name":"List (Albert & Vera) Art Building","Property_Abbr":"LISTART","Address_Line_1":"64 College St","AlL_Restrooms___vlookup":"030 | 031 | 128 | 231 | 330 | 430 | 431 | 530 | 531","Single_Sex____vlookup":"030 | 031 | 128 | 330 | 430 | 431 | 530 | 531","Gender_Inclusive___vlookup":"231","single_occupancy___vlookup":null,"Long":-71.40542,"Lat":41.82649,"FID":63}},{"type":"Feature","id":64,"geometry":{"type":"Point","coordinates":[-71.4050140380859,41.8264274597168]},"properties":{"Property_Code":100122,"Property_Name":"John Hay Library","Property_Abbr":"JHAYLIB","Address_Line_1":"20 Prospect St","AlL_Restrooms___vlookup":"010 | 012 | 012A | 121 | 123A | 123B | 308A | 308B","Single_Sex____vlookup":"010 | 012 | 012A | 121 | 308A | 308B","Gender_Inclusive___vlookup":"123A | 123B","single_occupancy___vlookup":null,"Long":-71.40501,"Lat":41.82643,"FID":64}},{"type":"Feature","id":65,"geometry":{"type":"Point","coordinates":[-71.4049072265625,41.826774597168]},"properties":{"Property_Code":100034,"Property_Name":"Prospect House","Property_Abbr":"PROSPECHSE","Address_Line_1":"36 Prospect St","AlL_Restrooms___vlookup":"001 | 009 | 113 | 209","Single_Sex____vlookup":"1","Gender_Inclusive___vlookup":"009 | 113 | 209","single_occupancy___vlookup":null,"Long":-71.40491,"Lat":41.82677,"FID":65}},{"type":"Feature","id":66,"geometry":{"type":"Point","coordinates":[-71.4051513671875,41.8267288208008]},"properties":{"Property_Code":100143,"Property_Name":"Blistein House","Property_Abbr":"BLISTEIN","Address_Line_1":"57 Waterman St","AlL_Restrooms___vlookup":"106 | 228 | 328","Single_Sex____vlookup":null,"Gender_Inclusive___vlookup":"106 | 228 | 328","single_occupancy___vlookup":null,"Long":-71.40515,"Lat":41.82673,"FID":66}},{"type":"Feature","id":69,"geometry":{"type":"Point","coordinates":[-71.4038467407227,41.8261566162109]},"properties":{"Property_Code":100182,"Property_Name":"University Hall","Property_Abbr":"UHALL","Address_Line_1":"1 Prospect St","AlL_Restrooms___vlookup":"003 | 007B | 026 | 106C | 113 | 200A | 200B | 217C | 315 | 319A | 420","Single_Sex____vlookup":"003 | 007B | 315","Gender_Inclusive___vlookup":"026 | 106C | 200A | 200B | 217C | 319A | 420","single_occupancy___vlookup":"113","Long":-71.40385,"Lat":41.82616,"FID":69}},{"type":"Feature","id":70,"geometry":{"type":"Point","coordinates":[-71.4051361083984,41.8256874084473]},"properties":{"Property_Code":100288,"Property_Name":"Rockefeller (John D., Jr.) Library","Property_Abbr":"ROCKLIB","Address_Line_1":"10 Prospect St","AlL_Restrooms___vlookup":"106 | 107 | 118 | 214 | 215 | 239 | 241 | 242 | 243 | 301 | 302 | 401 | 402 | A31 | A33 | A34 | B30 | B31","Single_Sex____vlookup":"106 | 107 | 118 | 214 | 215 | 239 | 241 | 242 | 243 | 301 | 302 | 401 | 402 | A33 | A34 | B30 | B31","Gender_Inclusive___vlookup":null,"single_occupancy___vlookup":"A31","Long":-71.40514,"Lat":41.82569,"FID":70}},{"type":"Feature","id":71,"geometry":{"type":"Point","coordinates":[-71.4047012329102,41.8253860473633]},"properties":{"Property_Code":100062,"Property_Name":"Wilbour Hall","Property_Abbr":"WILBOUR","Address_Line_1":"2 Prospect St","AlL_Restrooms___vlookup":"009 | 107 | 206 | 307 | 004 | 024 | 025 | 032 | 061 | 064 | 100A | 100B | 100C | 102 | 125 | 149 | 148C | 160 | 179 | 196A","Single_Sex____vlookup":"009 | 107 | 206 | 307 | 100A | 100B","Gender_Inclusive___vlookup":null,"single_occupancy___vlookup":"004 | 024 | 025 | 032 | 061 | 064 | 100C | 102 | 125 | 149 | 148C | 160 | 179 | 196A","Long":-71.4047,"Lat":41.82539,"FID":71}},{"type":"Feature","id":72,"geometry":{"type":"Point","coordinates":[-71.4052734375,41.8251075744629]},"properties":{"Property_Code":100006,"Property_Name":"George St 025","Property_Abbr":"GEORGE025","Address_Line_1":"25 George St","AlL_Restrooms___vlookup":"008 | 106 | 207 | 303","Single_Sex____vlookup":null,"Gender_Inclusive___vlookup":"008 | 106 | 207 | 303","single_occupancy___vlookup":null,"Long":-71.40527,"Lat":41.82511,"FID":72}},{"type":"Feature","id":73,"geometry":{"type":"Point","coordinates":[-71.4042816162109,41.8251037597656]},"properties":{"Property_Code":100207,"Property_Name":"Horace Mann House","Property_Abbr":"HORACEMANN","Address_Line_1":"47 George St","AlL_Restrooms___vlookup":"006 | 104 | 206 | 306 | 402A","Single_Sex____vlookup":"6","Gender_Inclusive___vlookup":"104 | 206 | 306 | 402A","single_occupancy___vlookup":null,"Long":-71.40428,"Lat":41.8251,"FID":73}},{"type":"Feature","id":74,"geometry":{"type":"Point","coordinates":[-71.4038772583008,41.8254928588867]},"properties":{"Property_Code":100099,"Property_Name":"Rhode Island Hall","Property_Abbr":"RIHALL","Address_Line_1":"60 George St","AlL_Restrooms___vlookup":"013 | 014 | 107A | 203 | 303","Single_Sex____vlookup":"013 | 014 | 107A | 203 | 303","Gender_Inclusive___vlookup":null,"single_occupancy___vlookup":null,"Long":-71.40388,"Lat":41.82549,"FID":74}},{"type":"Feature","id":75,"geometry":{"type":"Point","coordinates":[-71.4038009643555,41.8251304626465]},"properties":{"Property_Code":100268,"Property_Name":"Shirley Miller House","Property_Abbr":"SMILLERHSE","Address_Line_1":"59 George St","AlL_Restrooms___vlookup":"000A | 303","Single_Sex____vlookup":"000A","Gender_Inclusive___vlookup":"303","single_occupancy___vlookup":null,"Long":-71.4038,"Lat":41.82513,"FID":75}},{"type":"Feature","id":76,"geometry":{"type":"Point","coordinates":[-71.4035568237305,41.8251228332519]},"properties":{"Property_Code":100095,"Property_Name":"George St 067","Property_Abbr":"GEORGE067","Address_Line_1":"67 George St","AlL_Restrooms___vlookup":"101 | 204 | 209","Single_Sex____vlookup":null,"Gender_Inclusive___vlookup":null,"single_occupancy___vlookup":"101 | 204 | 209","Long":-71.40356,"Lat":41.82512,"FID":76}},{"type":"Feature","id":77,"geometry":{"type":"Point","coordinates":[-71.4033050537109,41.8251609802246]},"properties":{"Property_Code":100240,"Property_Name":"Nicholson House","Property_Abbr":"NICHOLSON","Address_Line_1":"71 George St","AlL_Restrooms___vlookup":"009B | 108 | 204 | 204B | 204C | 302A | 314","Single_Sex____vlookup":"009B | 204 | 204B | 204C | 302A","Gender_Inclusive___vlookup":"314","single_occupancy___vlookup":"108","Long":-71.40331,"Lat":41.82516,"FID":77}},{"type":"Feature","id":78,"geometry":{"type":"Point","coordinates":[-71.4030380249023,41.8251342773438]},"properties":{"Property_Code":100058,"Property_Name":"Maddock Alumni Center","Property_Abbr":"MADDOCK","Address_Line_1":"38 Brown St","AlL_Restrooms___vlookup":"001 | 002 | 105 | 105A | 201A | 210 | 211 | 311","Single_Sex____vlookup":"105A | 201A | 210 | 211 | 311","Gender_Inclusive___vlookup":"002 | 105","single_occupancy___vlookup":"1","Long":-71.40304,"Lat":41.82513,"FID":78}},{"type":"Feature","id":79,"geometry":{"type":"Point","coordinates":[-71.4032974243164,41.8247566223145]},"properties":{"Property_Code":100090,"Property_Name":"Benevolent St 020","Property_Abbr":"BENE020","Address_Line_1":"20 Benevolent St","AlL_Restrooms___vlookup":"105 | 106 | 203 | 305","Single_Sex____vlookup":null,"Gender_Inclusive___vlookup":"105 | 106 | 203 | 305","single_occupancy___vlookup":null,"Long":-71.4033,"Lat":41.82476,"FID":79}},{"type":"Feature","id":80,"geometry":{"type":"Point","coordinates":[-71.4028854370117,41.8247451782226]},"properties":{"Property_Code":100142,"Property_Name":"Benevolent St 026","Property_Abbr":"BENE026","Address_Line_1":"26 Benevolent St","AlL_Restrooms___vlookup":"111 | 201A | 206","Single_Sex____vlookup":"201A","Gender_Inclusive___vlookup":"111","single_occupancy___vlookup":"206","Long":-71.40289,"Lat":41.82475,"FID":80}},{"type":"Feature","id":81,"geometry":{"type":"Point","coordinates":[-71.4024810791016,41.8265342712402]},"properties":{"Property_Code":100050,"Property_Name":"Salomon Center For Teaching","Property_Abbr":"SALOMON","Address_Line_1":"79 Waterman St","AlL_Restrooms___vlookup":"007 | 012 | 013","Single_Sex____vlookup":"012 | 013","Gender_Inclusive___vlookup":"7","single_occupancy___vlookup":null,"Long":-71.40248,"Lat":41.82653,"FID":81}},{"type":"Feature","id":82,"geometry":{"type":"Point","coordinates":[-71.4018783569336,41.826602935791]},"properties":{"Property_Code":100110,"Property_Name":"Lyman Hall","Property_Abbr":"LYMANHALL","Address_Line_1":"83 Waterman St","AlL_Restrooms___vlookup":"004 | 006 | 020B | 022A | 104 | 209 | 210","Single_Sex____vlookup":"004 | 006 | 020B | 022A | 209 | 210","Gender_Inclusive___vlookup":"104","single_occupancy___vlookup":null,"Long":-71.40188,"Lat":41.8266,"FID":82}},{"type":"Feature","id":83,"geometry":{"type":"Point","coordinates":[-71.4026031494141,41.8262138366699]},"properties":{"Property_Code":100158,"Property_Name":"Sayles Hall","Property_Abbr":"SAYLESHALL","Address_Line_1":"81 Waterman St","AlL_Restrooms___vlookup":"000B | 000C | 006A | 010A | 108A | 324B","Single_Sex____vlookup":"000B | 000C | 006A | 324B","Gender_Inclusive___vlookup":null,"single_occupancy___vlookup":"010A | 108A","Long":-71.4026,"Lat":41.82621,"FID":83}},{"type":"Feature","id":84,"geometry":{"type":"Point","coordinates":[-71.4024429321289,41.8255920410156]},"properties":{"Property_Code":100008,"Property_Name":"John Carter Brown Library","Property_Abbr":"JCBLIBRARY","Address_Line_1":"94 George St","AlL_Restrooms___vlookup":"009 | 010 | 101 | 116 | A08","Single_Sex____vlookup":"116","Gender_Inclusive___vlookup":"101","single_occupancy___vlookup":"009 | 010 | A08","Long":-71.40244,"Lat":41.82559,"FID":84}},{"type":"Feature","id":85,"geometry":{"type":"Point","coordinates":[-71.4020309448242,41.8259201049805]},"properties":{"Property_Code":100265,"Property_Name":"Maxcy Hall","Property_Abbr":"MAXCY","Address_Line_1":"108 George St","AlL_Restrooms___vlookup":"121 | 221 | 321 | 421","Single_Sex____vlookup":"121 | 221 | 321 | 421","Gender_Inclusive___vlookup":null,"single_occupancy___vlookup":null,"Long":-71.40203,"Lat":41.82592,"FID":85}},{"type":"Feature","id":87,"geometry":{"type":"Point","coordinates":[-71.4012985229492,41.8260154724121]},"properties":{"Property_Code":100284,"Property_Name":"Lincoln Field Building","Property_Abbr":"LINCOLNFLD","Address_Line_1":"180 Thayer St","AlL_Restrooms___vlookup":"108 | 112 | 124 | 206 | 208 | 306 | 308","Single_Sex____vlookup":"112 | 124","Gender_Inclusive___vlookup":"108 | 206 | 208 | 306 | 308","single_occupancy___vlookup":null,"Long":-71.4013,"Lat":41.82602,"FID":87}},{"type":"Feature","id":89,"geometry":{"type":"Point","coordinates":[-71.4019393920898,41.8269081115723]},"properties":{"Property_Code":100274,"Property_Name":"Waterman St 085","Property_Abbr":"WATER085","Address_Line_1":"85 Waterman St","AlL_Restrooms___vlookup":"002 | 004 | 036 | 148 | 154 | 248 | 254 | 348 | 354 | 411","Single_Sex____vlookup":"002 | 004 | 148 | 154 | 248 | 254 | 348 | 354 | 411","Gender_Inclusive___vlookup":"36","single_occupancy___vlookup":null,"Long":-71.40194,"Lat":41.82691,"FID":89}},{"type":"Feature","id":90,"geometry":{"type":"Point","coordinates":[-71.4011535644531,41.8269577026367]},"properties":{"Property_Code":100278,"Property_Name":"Arnold Lab","Property_Abbr":"ARNOLDLAB","Address_Line_1":"91 Waterman St","AlL_Restrooms___vlookup":"106 | 206 | 306 | 406","Single_Sex____vlookup":"106 | 206 | 306","Gender_Inclusive___vlookup":"406","single_occupancy___vlookup":null,"Long":-71.40115,"Lat":41.82696,"FID":90}},{"type":"Feature","id":92,"geometry":{"type":"Point","coordinates":[-71.4008636474609,41.8267059326172]},"properties":{"Property_Code":100136,"Property_Name":"Metcalf Research Building","Property_Abbr":"METRSCHBLD","Address_Line_1":"190 Thayer St","AlL_Restrooms___vlookup":"006 | 014 | 016 | 108 | 110 | 210 | 212 | 316 | 318 | 416 | 417","Single_Sex____vlookup":"014 | 016 | 108 | 110 | 210 | 212 | 316 | 318","Gender_Inclusive___vlookup":"006 | 416 | 417","single_occupancy___vlookup":null,"Long":-71.40086,"Lat":41.82671,"FID":92}},{"type":"Feature","id":93,"geometry":{"type":"Point","coordinates":[-71.4001617431641,41.8269729614258]},"properties":{"Property_Code":100086,"Property_Name":"Sciences Library","Property_Abbr":"SCILIB","Address_Line_1":"201 Thayer St","AlL_Restrooms___vlookup":"013 | 1011 | 1014 | 1114 | 1214 | 1314 | 1414 | 214 | 311 | 314 | 414 | 417 | 511 | 514 | 611 | 614 | 711 | 714 | 811 | 814 | 911 | 914 | A02 | A03 | A13","Single_Sex____vlookup":"1114 | 1414 | A13","Gender_Inclusive___vlookup":"1011 | 1014 | 1214 | 1314 | 214 | 311 | 314 | 414 | 417 | 511 | 514 | 611 | 614 | 711 | 714 | 811 | 814 | 911 | 914","single_occupancy___vlookup":"013 | A02 | A03","Long":-71.40016,"Lat":41.82697,"FID":93}},{"type":"Feature","id":94,"geometry":{"type":"Point","coordinates":[-71.3995971679688,41.827033996582]},"properties":{"Property_Code":100073,"Property_Name":"Watson Center For Information Tech","Property_Abbr":"WATSONCIT","Address_Line_1":"115 Waterman St","AlL_Restrooms___vlookup":"020 | 022 | 024 | 025 | 026 | 147 | 149 | 274 | 276 | 278 | 332 | 374 | 376 | 430 | 444 | 474 | 476 | 574 | 576","Single_Sex____vlookup":"022 | 025 | 026 | 147 | 149 | 274 | 276 | 374 | 376 | 474 | 476 | 574 | 576","Gender_Inclusive___vlookup":"278 | 444","single_occupancy___vlookup":"020 | 024 | 332 | 430","Long":-71.3996,"Lat":41.82703,"FID":94}},{"type":"Feature","id":95,"geometry":{"type":"Point","coordinates":[-71.3995361328125,41.8266716003418]},"properties":{"Property_Code":100239,"Property_Name":"Marston Hall","Property_Abbr":"MARSTONHAL","Address_Line_1":"346 Brook St","AlL_Restrooms___vlookup":"013 | 015 | 213","Single_Sex____vlookup":"013 | 015","Gender_Inclusive___vlookup":"213","single_occupancy___vlookup":null,"Long":-71.39954,"Lat":41.82667,"FID":95}},{"type":"Feature","id":96,"geometry":{"type":"Point","coordinates":[-71.4001235961914,41.826042175293]},"properties":{"Property_Code":100032,"Property_Name":"Macmillan Hall","Property_Abbr":"MACMILLAN","Address_Line_1":"167 Thayer St","AlL_Restrooms___vlookup":"014 | 015 | 118 | 119 | 206 | 207 | 306 | 307","Single_Sex____vlookup":"014 | 015 | 118 | 119 | 206 | 207 | 306 | 307","Gender_Inclusive___vlookup":null,"single_occupancy___vlookup":null,"Long":-71.40012,"Lat":41.82604,"FID":96}},{"type":"Feature","id":98,"geometry":{"type":"Point","coordinates":[-71.3995742797852,41.8258934020996]},"properties":{"Property_Code":100056,"Property_Name":"Geo-Chem Bldg","Property_Abbr":"GEO-CHEM","Address_Line_1":"156 George St","AlL_Restrooms___vlookup":"053 | 054 | 153 | 194 | 195 | 257 | 294 | 295 | 394 | 395 | 494 | 495","Single_Sex____vlookup":"053 | 054 | 194 | 195 | 294 | 295 | 394 | 395 | 494 | 495","Gender_Inclusive___vlookup":"153 | 257","single_occupancy___vlookup":null,"Long":-71.39957,"Lat":41.82589,"FID":98}},{"type":"Feature","id":99,"geometry":{"type":"Point","coordinates":[-71.3994064331055,41.826286315918]},"properties":{"Property_Code":100171,"Property_Name":"Barus Building","Property_Abbr":"BARUSBUILD","Address_Line_1":"340 Brook St","AlL_Restrooms___vlookup":"107 | 112","Single_Sex____vlookup":null,"Gender_Inclusive___vlookup":"107","single_occupancy___vlookup":"112","Long":-71.39941,"Lat":41.82629,"FID":99}},{"type":"Feature","id":100,"geometry":{"type":"Point","coordinates":[-71.3988037109375,41.8259162902832]},"properties":{"Property_Code":100236,"Property_Name":"George St 180","Property_Abbr":"GEORGE180","Address_Line_1":"180 George St","AlL_Restrooms___vlookup":"001 | 003 | 013 | 015 | 103","Single_Sex____vlookup":"001 | 003 | 013 | 015","Gender_Inclusive___vlookup":"103","single_occupancy___vlookup":null,"Long":-71.3988,"Lat":41.82592,"FID":100}},{"type":"Feature","id":101,"geometry":{"type":"Point","coordinates":[-71.3983688354492,41.8259468078613]},"properties":{"Property_Code":100249,"Property_Name":"George St 182","Property_Abbr":"GEORGE182","Address_Line_1":"182 George St","AlL_Restrooms___vlookup":"023 | 117A | 123 | 202 | 202A | 235 | 319","Single_Sex____vlookup":"202 | 202A | 235","Gender_Inclusive___vlookup":"023 | 123 | 319","single_occupancy___vlookup":"117A","Long":-71.39837,"Lat":41.82595,"FID":101}},{"type":"Feature","id":102,"geometry":{"type":"Point","coordinates":[-71.398551940918,41.8268165588379]},"properties":{"Property_Code":100275,"Property_Name":"Lassonde Innovation and Design Hub","Property_Abbr":"LASSONDE","Address_Line_1":"355 Brook St","AlL_Restrooms___vlookup":"115 | 117","Single_Sex____vlookup":"115 | 117","Gender_Inclusive___vlookup":null,"single_occupancy___vlookup":null,"Long":-71.39855,"Lat":41.82682,"FID":102}},{"type":"Feature","id":106,"geometry":{"type":"Point","coordinates":[-71.3981704711914,41.8273315429688]},"properties":{"Property_Code":100255,"Property_Name":"Waterman St 131","Property_Abbr":"WATER131","Address_Line_1":"131 Waterman St","AlL_Restrooms___vlookup":"104 | 202","Single_Sex____vlookup":null,"Gender_Inclusive___vlookup":"104 | 202","single_occupancy___vlookup":null,"Long":-71.39817,"Lat":41.82733,"FID":106}},{"type":"Feature","id":107,"geometry":{"type":"Point","coordinates":[-71.3980407714844,41.8273544311523]},"properties":{"Property_Code":100290,"Property_Name":"Waterman St 133","Property_Abbr":"WATER133","Address_Line_1":"133 Waterman St","AlL_Restrooms___vlookup":"107 | 207A | 209 | 213","Single_Sex____vlookup":null,"Gender_Inclusive___vlookup":null,"single_occupancy___vlookup":"107 | 207A | 209 | 213","Long":-71.39804,"Lat":41.82735,"FID":107}},{"type":"Feature","id":108,"geometry":{"type":"Point","coordinates":[-71.3978118896484,41.8271446228027]},"properties":{"Property_Code":100025,"Property_Name":"Waterman St 137","Property_Abbr":"WATER137","Address_Line_1":"137 Waterman St","AlL_Restrooms___vlookup":"103","Single_Sex____vlookup":null,"Gender_Inclusive___vlookup":null,"single_occupancy___vlookup":"103","Long":-71.39781,"Lat":41.82714,"FID":108}},{"type":"Feature","id":109,"geometry":{"type":"Point","coordinates":[-71.3975372314453,41.8273811340332]},"properties":{"Property_Code":100109,"Property_Name":"Hope St 190","Property_Abbr":"HOPE190","Address_Line_1":"190 Hope St","AlL_Restrooms___vlookup":"102A | 106 | 209 | 305","Single_Sex____vlookup":"102A | 209","Gender_Inclusive___vlookup":"305","single_occupancy___vlookup":"106","Long":-71.39754,"Lat":41.82738,"FID":109}},{"type":"Feature","id":114,"geometry":{"type":"Point","coordinates":[-71.4023132324219,41.8243026733399]},"properties":{"Property_Code":100230,"Property_Name":"Annmary Brown Memorial Library","Property_Abbr":"ANNMARY","Address_Line_1":"21 Brown St","AlL_Restrooms___vlookup":"012 | 014","Single_Sex____vlookup":"012 | 014","Gender_Inclusive___vlookup":null,"single_occupancy___vlookup":null,"Long":-71.40231,"Lat":41.8243,"FID":114}},{"type":"Feature","id":115,"geometry":{"type":"Point","coordinates":[-71.4023361206055,41.8239898681641]},"properties":{"Property_Code":100200,"Property_Name":"Andrews House","Property_Abbr":"ANDREWSHSE","Address_Line_1":"13 Brown St","AlL_Restrooms___vlookup":"009 | 101 | 213 | 220 | 311 | 313","Single_Sex____vlookup":"009 | 220","Gender_Inclusive___vlookup":null,"single_occupancy___vlookup":"101 | 213 | 311 | 313","Long":-71.40234,"Lat":41.82399,"FID":115}},{"type":"Feature","id":120,"geometry":{"type":"Point","coordinates":[-71.4008331298828,41.8251228332519]},"properties":{"Property_Code":100276,"Property_Name":"Sharpe Refectory","Property_Abbr":"SHARPEREF","Address_Line_1":"144 Thayer St","AlL_Restrooms___vlookup":"016 | 017 | 017A | 018 | 018A | 018B | 019 | 021 | 021A | 038 | 045 | 045A","Single_Sex____vlookup":"016 | 017 | 017A | 018 | 018A | 018B | 019 | 021 | 021A | 038 | 045 | 045A","Gender_Inclusive___vlookup":null,"single_occupancy___vlookup":null,"Long":-71.40083,"Lat":41.82512,"FID":120}},{"type":"Feature","id":123,"geometry":{"type":"Point","coordinates":[-71.4000396728516,41.8252868652344]},"properties":{"Property_Code":100192,"Property_Name":"Kassar (Edward W.) House","Property_Abbr":"KASSAR","Address_Line_1":"151 Thayer St","AlL_Restrooms___vlookup":"001 | 119 | 121 | 126 | 128 | 200D | 201 | 206 | 307","Single_Sex____vlookup":"001 | 200D","Gender_Inclusive___vlookup":"119 | 121 | 126 | 128 | 201 | 206 | 307","single_occupancy___vlookup":null,"Long":-71.40004,"Lat":41.82529,"FID":123}},{"type":"Feature","id":124,"geometry":{"type":"Point","coordinates":[-71.4000854492188,41.8249855041504]},"properties":{"Property_Code":100289,"Property_Name":"Thayer St 135","Property_Abbr":"THAYER135","Address_Line_1":"135 Thayer St","AlL_Restrooms___vlookup":"105 | 106 | 204","Single_Sex____vlookup":"105 | 204","Gender_Inclusive___vlookup":null,"single_occupancy___vlookup":"106","Long":-71.40009,"Lat":41.82499,"FID":124}},{"type":"Feature","id":125,"geometry":{"type":"Point","coordinates":[-71.3996887207031,41.8253936767578]},"properties":{"Property_Code":100146,"Property_Name":"George St 155","Property_Abbr":"GEORGE155","Address_Line_1":"155 George St","AlL_Restrooms___vlookup":"006 | 103 | 108A | 213","Single_Sex____vlookup":"108A","Gender_Inclusive___vlookup":"006 | 103 | 213","single_occupancy___vlookup":null,"Long":-71.39969,"Lat":41.82539,"FID":125}},{"type":"Feature","id":126,"geometry":{"type":"Point","coordinates":[-71.3992156982422,41.8254737854004]},"properties":{"Property_Code":100218,"Property_Name":"Hirschfeld House","Property_Abbr":"HIRSCHFELD","Address_Line_1":"163 George St","AlL_Restrooms___vlookup":"006B | 106 | 204 | 304","Single_Sex____vlookup":"006B","Gender_Inclusive___vlookup":"106 | 204 | 304","single_occupancy___vlookup":null,"Long":-71.39922,"Lat":41.82547,"FID":126}},{"type":"Feature","id":130,"geometry":{"type":"Point","coordinates":[-71.3983612060547,41.8251113891601]},"properties":{"Property_Code":100279,"Property_Name":"Benevolent St 088","Property_Abbr":"BENE088","Address_Line_1":"88 Benevolent St","AlL_Restrooms___vlookup":"103 | 104","Single_Sex____vlookup":"103 | 104","Gender_Inclusive___vlookup":null,"single_occupancy___vlookup":null,"Long":-71.39836,"Lat":41.82511,"FID":130}},{"type":"Feature","id":131,"geometry":{"type":"Point","coordinates":[-71.3991088867188,41.8247680664062]},"properties":{"Property_Code":100231,"Property_Name":"Benevolent St 083-085","Property_Abbr":"BENE083-85","Address_Line_1":"83 Benevolent St","AlL_Restrooms___vlookup":"102 | 103 | 203 | 204","Single_Sex____vlookup":"102 | 103 | 203 | 204","Gender_Inclusive___vlookup":null,"single_occupancy___vlookup":null,"Long":-71.39911,"Lat":41.82477,"FID":131}},{"type":"Feature","id":136,"geometry":{"type":"Point","coordinates":[-71.3982009887695,41.8242492675781]},"properties":{"Property_Code":100043,"Property_Name":"Charlesfield St 075","Property_Abbr":"CHAR075","Address_Line_1":"75 Charlesfield St","AlL_Restrooms___vlookup":"104 | 206 | 212 | 301 | 301A | 307 | 307A","Single_Sex____vlookup":"206 | 212 | 301 | 301A | 307 | 307A","Gender_Inclusive___vlookup":null,"single_occupancy___vlookup":"104","Long":-71.3982,"Lat":41.82425,"FID":136}},{"type":"Feature","id":138,"geometry":{"type":"Point","coordinates":[-71.3998870849609,41.8243980407715]},"properties":{"Property_Code":100155,"Property_Name":"Watson Institute","Property_Abbr":"WATSONINS","Address_Line_1":"111 Thayer St","AlL_Restrooms___vlookup":"133 | 136 | 143 | 146 | 239 | 240 | 253 | 254 | 332 | 333 | 347 | 348","Single_Sex____vlookup":"133 | 136 | 143 | 146","Gender_Inclusive___vlookup":"239 | 240 | 253 | 254 | 332 | 333 | 347 | 348","single_occupancy___vlookup":null,"Long":-71.39989,"Lat":41.8244,"FID":138}},{"type":"Feature","id":139,"geometry":{"type":"Point","coordinates":[-71.3994216918945,41.8241806030274]},"properties":{"Property_Code":100248,"Property_Name":"Charlesfield St 059","Property_Abbr":"CHAR059","Address_Line_1":"59 Charlesfield St","AlL_Restrooms___vlookup":"105 | 107 | 108 | 308 | 309","Single_Sex____vlookup":"105","Gender_Inclusive___vlookup":"107 | 108 | 308 | 309","single_occupancy___vlookup":null,"Long":-71.39942,"Lat":41.82418,"FID":139}},{"type":"Feature","id":140,"geometry":{"type":"Point","coordinates":[-71.3975524902344,41.8246459960938]},"properties":{"Property_Code":100107,"Property_Name":"Fox Point Day Care Center","Property_Abbr":"FOXPOINT","Address_Line_1":"150 Hope St","AlL_Restrooms___vlookup":"006 | 009 | 106 | 107","Single_Sex____vlookup":"006 | 009 | 106 | 107","Gender_Inclusive___vlookup":null,"single_occupancy___vlookup":null,"Long":-71.39755,"Lat":41.82465,"FID":140}},{"type":"Feature","id":141,"geometry":{"type":"Point","coordinates":[-71.3970184326172,41.8249740600586]},"properties":{"Property_Code":100009,"Property_Name":"Morrison-Gerard Studio","Property_Abbr":"MOR-GERARD","Address_Line_1":"151 Hope St","AlL_Restrooms___vlookup":"122","Single_Sex____vlookup":null,"Gender_Inclusive___vlookup":"122","single_occupancy___vlookup":null,"Long":-71.39702,"Lat":41.82497,"FID":141}},{"type":"Feature","id":142,"geometry":{"type":"Point","coordinates":[-71.3966293334961,41.8249397277832]},"properties":{"Property_Code":100030,"Property_Name":"Grant Fulton","Property_Abbr":"GRANTFULT","Address_Line_1":"105 Benevolent St","AlL_Restrooms___vlookup":"109 | 110","Single_Sex____vlookup":"109 | 110","Gender_Inclusive___vlookup":null,"single_occupancy___vlookup":null,"Long":-71.39663,"Lat":41.82494,"FID":142}},{"type":"Feature","id":143,"geometry":{"type":"Point","coordinates":[-71.3958892822266,41.8244667053223]},"properties":{"Property_Code":100241,"Property_Name":"T.F. Green Hall","Property_Abbr":"TFGREEN","Address_Line_1":"7 Young Orchard St","AlL_Restrooms___vlookup":"120 | 128 | 210 | 212","Single_Sex____vlookup":"120 | 128 | 210 | 212","Gender_Inclusive___vlookup":null,"single_occupancy___vlookup":null,"Long":-71.39589,"Lat":41.82447,"FID":143}},{"type":"Feature","id":149,"geometry":{"type":"Point","coordinates":[-71.3973541259766,41.8237342834473]},"properties":{"Property_Code":100069,"Property_Name":"Feinstein","Property_Abbr":"FEINSTEIN","Address_Line_1":"130 Hope St","AlL_Restrooms___vlookup":"103 | 201","Single_Sex____vlookup":null,"Gender_Inclusive___vlookup":"103 | 201","single_occupancy___vlookup":null,"Long":-71.39735,"Lat":41.82373,"FID":149}},{"type":"Feature","id":150,"geometry":{"type":"Point","coordinates":[-71.3973999023438,41.8235549926758]},"properties":{"Property_Code":100070,"Property_Name":"Giddings House","Property_Abbr":"GIDDINGS","Address_Line_1":"128 Hope St","AlL_Restrooms___vlookup":"108 | 113 | 208 | 214B","Single_Sex____vlookup":null,"Gender_Inclusive___vlookup":"108 | 113 | 208 | 214B","single_occupancy___vlookup":null,"Long":-71.3974,"Lat":41.82355,"FID":150}},{"type":"Feature","id":151,"geometry":{"type":"Point","coordinates":[-71.3968276977539,41.8234100341797]},"properties":{"Property_Code":100153,"Property_Name":"Steinert Center","Property_Abbr":"STEINERT","Address_Line_1":"148 Power St","AlL_Restrooms___vlookup":"006 | 007 | 106 | 107 | 206 | 207","Single_Sex____vlookup":"006 | 007 | 106 | 206 | 207","Gender_Inclusive___vlookup":null,"single_occupancy___vlookup":"107","Long":-71.39683,"Lat":41.82341,"FID":151}},{"type":"Feature","id":155,"geometry":{"type":"Point","coordinates":[-71.3987808227539,41.8220367431641]},"properties":{"Property_Code":100148,"Property_Name":"John St 050","Property_Abbr":"JOHN050","Address_Line_1":"50 John St","AlL_Restrooms___vlookup":"100A | 103","Single_Sex____vlookup":"103","Gender_Inclusive___vlookup":null,"single_occupancy___vlookup":"100A","Long":-71.39878,"Lat":41.82204,"FID":155}},{"type":"Feature","id":161,"geometry":{"type":"Point","coordinates":[-71.4029693603516,41.8224678039551]},"properties":{"Property_Code":100266,"Property_Name":"Nightingale-Brown House","Property_Abbr":"NIGHT-BROW","Address_Line_1":"357 Benefit St","AlL_Restrooms___vlookup":"004 | 006 | 123 | 143A | 210A | 210E | 211E | 211E | 211E | 211E","Single_Sex____vlookup":"004 | 006 | 123 | 143A | 210E | 211E","Gender_Inclusive___vlookup":null,"single_occupancy___vlookup":"210A | 211E | 211E | 211E","Long":-71.40297,"Lat":41.82247,"FID":161}},{"type":"Feature","id":162,"geometry":{"type":"Point","coordinates":[-71.4069900512695,41.8239555358887]},"properties":{"Property_Code":100228,"Property_Name":"South Main St 121","Property_Abbr":"SMAIN121","Address_Line_1":"121 South Main St","AlL_Restrooms___vlookup":"1031 | 10T1 | 10T2 | 11T1 | 11T2 | 235 | 236 | 266 | 267 | 3M2 | 3T1 | 3T2 | 3T3 | 4T1 | 4T2 | 5T1 | 5T2 | 5T3 | 6T1 | 6T2 | 7T1 | 7T2 | 8T1 | 8T2 | 9T1 | 9T2","Single_Sex____vlookup":"10T1 | 10T2 | 11T1 | 11T2 | 266 | 267 | 3T1 | 3T2 | 4T1 | 4T2 | 5T1 | 5T2 | 6T1 | 6T2 | 7T1 | 7T2 | 8T1 | 8T2 | 9T1 | 9T2","Gender_Inclusive___vlookup":"235 | 236 | 3M2 | 5T3","single_occupancy___vlookup":"1031 | 3T3","Long":-71.40699,"Lat":41.82396,"FID":162}},{"type":"Feature","id":163,"geometry":{"type":"Point","coordinates":[-71.4076995849609,41.8212928771973]},"properties":{"Property_Code":100313,"Property_Name":"Dyer St 200","Property_Abbr":"DYER200","Address_Line_1":"200 Dyer St","AlL_Restrooms___vlookup":"111 | 113 | 120B | 152 | 153 | 247 | 249","Single_Sex____vlookup":"111 | 113 | 120B | 152 | 153 | 247 | 249","Gender_Inclusive___vlookup":null,"single_occupancy___vlookup":null,"Long":-71.4077,"Lat":41.82129,"FID":163}},{"type":"Feature","id":164,"geometry":{"type":"Point","coordinates":[-71.4091644287109,41.8194885253906]},"properties":{"Property_Code":100015,"Property_Name":"Richmond St 196","Property_Abbr":"RICHMND196","Address_Line_1":"196 Richmond St","AlL_Restrooms___vlookup":"103 | 105 | 108 | 202 | 203 | 302 | 303","Single_Sex____vlookup":"103 | 105 | 108 | 202 | 203 | 302 | 303","Gender_Inclusive___vlookup":null,"single_occupancy___vlookup":null,"Long":-71.40916,"Lat":41.81949,"FID":164}},{"type":"Feature","id":165,"geometry":{"type":"Point","coordinates":[-71.4084777832031,41.8189010620117]},"properties":{"Property_Code":100152,"Property_Name":"Richmond St 222","Property_Abbr":"RICHMND222","Address_Line_1":"222 Richmond St","AlL_Restrooms___vlookup":"131 | 133 | 147 | 181 | 182 | 202 | 214 | 227 | 229 | 234 | 242 | 307 | 309 | 333 | 350 | 355 | 378 | 379 | 408 | 408A | 408B | 432 | 440 | 441","Single_Sex____vlookup":"131 | 133 | 214 | 227 | 229 | 234 | 242 | 307 | 309 | 350 | 355 | 378 | 379 | 408 | 408A | 408B | 440 | 441","Gender_Inclusive___vlookup":"147 | 202 | 432","single_occupancy___vlookup":"181 | 182 | 333","Long":-71.40848,"Lat":41.8189,"FID":165}},{"type":"Feature","id":167,"geometry":{"type":"Point","coordinates":[-71.4079360961914,41.8184928894043]},"properties":{"Property_Code":100184,"Property_Name":"Eddy St 339","Property_Abbr":"EDDYST339","Address_Line_1":"339 Eddy St","AlL_Restrooms___vlookup":"115 | 117 | 218 | 219","Single_Sex____vlookup":"115 | 117 | 218 | 219","Gender_Inclusive___vlookup":null,"single_occupancy___vlookup":null,"Long":-71.40794,"Lat":41.81849,"FID":167}},{"type":"Feature","id":168,"geometry":{"type":"Point","coordinates":[-71.4078521728516,41.8183746337891]},"properties":{"Property_Code":100064,"Property_Name":"Eddy St 349","Property_Abbr":"EDDYST349","Address_Line_1":"349 Eddy St","AlL_Restrooms___vlookup":"128 | 129","Single_Sex____vlookup":"128 | 129","Gender_Inclusive___vlookup":null,"single_occupancy___vlookup":null,"Long":-71.40785,"Lat":41.81837,"FID":168}},{"type":"Feature","id":169,"geometry":{"type":"Point","coordinates":[-71.4078598022461,41.818229675293]},"properties":{"Property_Code":100311,"Property_Name":"Elm St 043","Property_Abbr":"ELM043","Address_Line_1":"43 Elm St","AlL_Restrooms___vlookup":"106","Single_Sex____vlookup":"106","Gender_Inclusive___vlookup":null,"single_occupancy___vlookup":null,"Long":-71.40786,"Lat":41.81823,"FID":169}},{"type":"Feature","id":170,"geometry":{"type":"Point","coordinates":[-71.4101867675781,41.8187294006348]},"properties":{"Property_Code":100035,"Property_Name":"Ship St 070","Property_Abbr":"SHIPST070","Address_Line_1":"70 Ship St","AlL_Restrooms___vlookup":"120 | 121 | 203C | 204 | 219 | 220 | 222 | 253 | 302 | 316 | 318 | 416 | 418 | 516 | 518 | 601 | 603","Single_Sex____vlookup":"120 | 121 | 204 | 219 | 220 | 253 | 302 | 316 | 318 | 416 | 418 | 516 | 518 | 601 | 603","Gender_Inclusive___vlookup":null,"single_occupancy___vlookup":"203C | 222","Long":-71.41019,"Lat":41.81873,"FID":170}},{"type":"Feature","id":171,"geometry":{"type":"Point","coordinates":[-71.4061508178711,41.8173408508301]},"properties":{"Property_Code":100277,"Property_Name":"Davol Sq 001","Property_Abbr":"DAVOL001","Address_Line_1":"1 Davol Sq","AlL_Restrooms___vlookup":"131 | 133 | 134 | 203 | 204 | 303 | 304","Single_Sex____vlookup":"131 | 134 | 203 | 204 | 303 | 304","Gender_Inclusive___vlookup":null,"single_occupancy___vlookup":"133","Long":-71.40615,"Lat":41.81734,"FID":171}},{"type":"Feature","id":172,"geometry":{"type":"Point","coordinates":[-71.4110107421875,41.8165092468262]},"properties":{"Property_Code":100063,"Property_Name":"Elm St 110","Property_Abbr":"ELM110","Address_Line_1":"110 Elm St","AlL_Restrooms___vlookup":"139A | 139B | 165A | 165B | 249A | 249B | 349A | 349B","Single_Sex____vlookup":"139A | 139B | 165A | 165B | 249A | 249B | 349A | 349B","Gender_Inclusive___vlookup":null,"single_occupancy___vlookup":null,"Long":-71.41101,"Lat":41.81651,"FID":172}},{"type":"Feature","id":174,"geometry":{"type":"Point","coordinates":[-71.3948059082031,41.8417320251465]},"properties":{"Property_Code":100067,"Property_Name":"Brown Stadium","Property_Abbr":"BROWNSTAD","Address_Line_1":"112 Sessions St","AlL_Restrooms___vlookup":"103 | 104 | 105 | 106 | 107 | 108A | 108B | 109 | 109A | 109B | 109C | 109D | 109E | 110 | 111 | 112 | 113 | 114 | 121 | 123","Single_Sex____vlookup":"103 | 104 | 105 | 106 | 107 | 108A | 108B | 109 | 109A | 109B | 109C | 109D | 109E | 110 | 111 | 112 | 113 | 114 | 121 | 123","Gender_Inclusive___vlookup":null,"single_occupancy___vlookup":null,"Long":-71.39481,"Lat":41.84173,"FID":174}},{"type":"Feature","id":175,"geometry":{"type":"Point","coordinates":[-71.3991241455078,41.8391189575195]},"properties":{"Property_Code":100250,"Property_Name":"Ladd Observatory","Property_Abbr":"LADDOBSERV","Address_Line_1":"210 Doyle Ave","AlL_Restrooms___vlookup":"4","Single_Sex____vlookup":null,"Gender_Inclusive___vlookup":null,"single_occupancy___vlookup":"4","Long":-71.39912,"Lat":41.83912,"FID":175}},{"type":"Feature","id":176,"geometry":{"type":"Point","coordinates":[-71.4038696289063,41.826473236084]},"properties":{"Property_Code":100096,"Property_Name":"Manning Hall","Property_Abbr":"MANNING","Address_Line_1":"21 Prospect St","AlL_Restrooms___vlookup":"001 | 101A | 101B | 101C | 204","Single_Sex____vlookup":"1","Gender_Inclusive___vlookup":"101A | 204","single_occupancy___vlookup":"101B | 101C","Long":-71.40387,"Lat":41.82647,"FID":176}},{"type":"Feature","id":179,"geometry":{"type":"Point","coordinates":[-71.3967437744141,41.8245735168457]},"properties":{"Property_Code":100010,"Property_Name":"Orwig Music Hall","Property_Abbr":"ORWIG","Address_Line_1":"1 Young Orchard Ave","AlL_Restrooms___vlookup":"013 | 015 | 114 | 223 | 318","Single_Sex____vlookup":"013 | 015","Gender_Inclusive___vlookup":"114 | 223 | 318","single_occupancy___vlookup":null,"Long":-71.39674,"Lat":41.82457,"FID":179}},{"type":"Feature","id":181,"geometry":{"type":"Point","coordinates":[-71.3886947631836,41.8183670043945]},"properties":{"Property_Code":100220,"Property_Name":"Marston Boathouse","Property_Abbr":"MRSTNBOAT","Address_Line_1":"258 India St","AlL_Restrooms___vlookup":"104 | 104A | 104B | 104C | 105 | 105A | 105B | 105C | 106 | 107 | 218 | 219","Single_Sex____vlookup":"104 | 104A | 104B | 104C | 105 | 105A | 105B | 105C | 107","Gender_Inclusive___vlookup":null,"single_occupancy___vlookup":"106 | 218 | 219","Long":-71.38869,"Lat":41.81837,"FID":181}},{"type":"Feature","id":183,"geometry":{"type":"Point","coordinates":[-71.3795700073242,41.8428955078125]},"properties":{"Property_Code":100292,"Property_Name":"Butler Hospital Duncan Building","Property_Abbr":"BUTLERDUNC","Address_Line_1":"345 Blackstone Blvd","AlL_Restrooms___vlookup":"E136 | E137 | E239 | E240","Single_Sex____vlookup":null,"Gender_Inclusive___vlookup":null,"single_occupancy___vlookup":"E136 | E137 | E239 | E240","Long":-71.37957,"Lat":41.8429,"FID":183}},{"type":"Feature","id":184,"geometry":{"type":"Point","coordinates":[-71.3978424072266,41.826530456543]},"properties":{"Property_Code":100077,"Property_Name":"Barus & Holley","Property_Abbr":"BH","Address_Line_1":"184 Hope St","AlL_Restrooms___vlookup":"078 | 126 | 167 | 169 | 170 | 171 | 178 | 277 | 278 | 377 | 378 | 477 | 478 | 577 | 578 | 677 | 678 | 777 | 778","Single_Sex____vlookup":"126 | 167 | 169 | 178 | 277 | 278 | 377 | 378 | 477 | 478 | 577 | 578 | 677 | 678 | 777 | 778","Gender_Inclusive___vlookup":"078 | 170 | 171","single_occupancy___vlookup":null,"Long":-71.39784,"Lat":41.82653,"FID":184}},{"type":"Feature","id":185,"geometry":{"type":"Point","coordinates":[-71.4010620117188,41.8293838500976]},"properties":{"Property_Code":100324,"Property_Name":"Thayer St 272","Property_Abbr":"THAYER272","Address_Line_1":"272 Thayer St","AlL_Restrooms___vlookup":"113 | 114 | 116 | 121 | 135A | 227A | 227B | 236","Single_Sex____vlookup":"113 | 114 | 116 | 121 | 135A | 227A | 227B | 236","Gender_Inclusive___vlookup":null,"single_occupancy___vlookup":null,"Long":-71.40106,"Lat":41.82938,"FID":185}},{"type":"Feature","id":187,"geometry":{"type":"Point","coordinates":[-71.3984451293945,41.8263854980469]},"properties":{"Property_Code":100331,"Property_Name":"Engineering Research Center","Property_Abbr":"ENGRESCTR","Address_Line_1":"345 Brook St","AlL_Restrooms___vlookup":"003 | 004 | 123 | 124 | 223 | 224 | 323 | 324","Single_Sex____vlookup":"123 | 124 | 223 | 224 | 323 | 324","Gender_Inclusive___vlookup":"003 | 004","single_occupancy___vlookup":null,"Long":-71.39845,"Lat":41.82639,"FID":187}},{"type":"Feature","id":188,"geometry":{"type":"Point","coordinates":[-71.4085006713867,41.8191413879394]},"properties":{"Property_Code":100329,"Property_Name":"Ship St 026","Property_Abbr":"SHIPST026","Address_Line_1":"26 Ship St","AlL_Restrooms___vlookup":"108 | 208A","Single_Sex____vlookup":"108 | 208A","Gender_Inclusive___vlookup":null,"single_occupancy___vlookup":null,"Long":-71.4085,"Lat":41.81914,"FID":188}},{"type":"Feature","id":189,"geometry":{"type":"Point","coordinates":[-71.4060363769531,41.8184051513672]},"properties":{"Property_Code":100322,"Property_Name":"South Street Landing","Property_Abbr":"SOUTHSTLD","Address_Line_1":"350 Eddy St","AlL_Restrooms___vlookup":"400E","Single_Sex____vlookup":null,"Gender_Inclusive___vlookup":null,"single_occupancy___vlookup":"400E","Long":-71.40604,"Lat":41.81841,"FID":189}},{"type":"Feature","id":191,"geometry":{"type":"Point","coordinates":[-71.3991470336914,41.8243026733399]},"properties":{"Property_Code":100333,"Property_Name":"Stephen Robert Hall","Property_Abbr":"ROBERTHALL","Address_Line_1":"280 Brook St","AlL_Restrooms___vlookup":"102 | 103 | 120 | 203 | 204 | 232 | 303 | 304 | 332","Single_Sex____vlookup":"102 | 103","Gender_Inclusive___vlookup":"120 | 203 | 204 | 232 | 303 | 304 | 332","single_occupancy___vlookup":null,"Long":-71.39915,"Lat":41.8243,"FID":191}},{"type":"Feature","id":193,"geometry":{"type":"Point","coordinates":[-71.4086990356445,41.8202018737793]},"properties":{"Property_Code":100347,"Property_Name":"Dyer St 225","Property_Abbr":"DYERST225","Address_Line_1":"225 Dyer St","AlL_Restrooms___vlookup":"522 | 610 | 611","Single_Sex____vlookup":"610 | 611","Gender_Inclusive___vlookup":"522","single_occupancy___vlookup":null,"Long":-71.4087,"Lat":41.8202,"FID":193}},{"type":"Feature","id":194,"geometry":{"type":"Point","coordinates":[-71.4005432128906,41.8284950256348]},"properties":{"Property_Code":100345,"Property_Name":"Euclid Ave 001","Property_Abbr":"EUCLID001","Address_Line_1":"1 Euclid Ave","AlL_Restrooms___vlookup":"201 | 301 | 302 | 401 | 402","Single_Sex____vlookup":null,"Gender_Inclusive___vlookup":"201 | 301 | 401 | 402","single_occupancy___vlookup":"302","Long":-71.40054,"Lat":41.8285,"FID":194}},{"type":"Feature","id":195,"geometry":{"type":"Point","coordinates":[-71.4029083251953,41.8268508911133]},"properties":{"Property_Code":100044,"Property_Name":"Faunce House","Property_Abbr":"FAUNCEHSE","Address_Line_1":"75 Waterman St","AlL_Restrooms___vlookup":"003 | 003A | 013 | 013A | 050B | 050C | 132 | 136 | 143 | 144 | 1T03 | 1T04 | 224 | 224A | 224B | 248 | 250 | 251 | 252 | 304 | A07","Single_Sex____vlookup":"003 | 003A | 013 | 013A | 050B | 050C | 132 | 136 | 224A | 224B | 250 | 251 | 252 | 304 | A07","Gender_Inclusive___vlookup":"248","single_occupancy___vlookup":"143 | 144 | 1T03 | 1T04 | 224","Long":-71.40291,"Lat":41.82685,"FID":195}},{"type":"Feature","id":196,"geometry":{"type":"Point","coordinates":[-71.3964309692383,41.8316230773926]},"properties":{"Property_Code":100357,"Property_Name":"Lacrosse Soccer","Property_Abbr":"LACRSSOCCR","Address_Line_1":"245 Lloyd Ave","AlL_Restrooms___vlookup":"104E | 104F | 104G | 110 | 110A | 110B | 112 | 112A | 112B | 114 | 114A | 114B | 116 | 116A | 116B | 203 | 203A | 203B | 212 | 215 | 216 | 218 | 220 | 303 | 306","Single_Sex____vlookup":"110 | 110A | 110B | 112 | 112A | 112B | 114 | 114A | 114B | 116 | 116A | 116B | 203 | 203A | 203B | 212 | 216 | 218 | 220","Gender_Inclusive___vlookup":"215 | 303","single_occupancy___vlookup":"104E | 104F | 104G | 306","Long":-71.39643,"Lat":41.83162,"FID":196}},{"type":"Feature","id":197,"geometry":{"type":"Point","coordinates":[-71.3991775512695,41.8304290771484]},"properties":{"Property_Code":100256,"Property_Name":"Cushing St 172","Property_Abbr":"CUSH172","Address_Line_1":"172 Cushing St","AlL_Restrooms___vlookup":"002 | 102B | 103B | 104A | 110 | 205B | 206B | 207B | 208A | 210","Single_Sex____vlookup":"002 | 102B | 103B | 104A | 110 | 205B | 206B | 207B | 208A | 210","Gender_Inclusive___vlookup":null,"single_occupancy___vlookup":null,"Long":-71.39918,"Lat":41.83043,"FID":197}},{"type":"Feature","id":198,"geometry":{"type":"Point","coordinates":[-71.4052047729492,41.8177719116211]},"properties":{"Property_Code":100358,"Property_Name":"River House Apartments","Property_Abbr":"RIVERHSAPT","Address_Line_1":"1 Point St","AlL_Restrooms___vlookup":"100J | 100K","Single_Sex____vlookup":null,"Gender_Inclusive___vlookup":null,"single_occupancy___vlookup":"100J | 100K","Long":-71.4052,"Lat":41.81777,"FID":198}},{"type":"Feature","id":199,"geometry":{"type":"Point","coordinates":[-71.4066314697266,41.8235473632812]},"properties":{"Property_Code":100362,"Property_Name":"South Main St 155","Property_Abbr":"SMAIN155","Address_Line_1":"155 South Main Street","AlL_Restrooms___vlookup":"002 | 101 | 103 | 104 | 157 | 211 | 211A | 213 | 311 | 313 | 411 | 413","Single_Sex____vlookup":"002 | 101 | 103 | 211 | 211A | 213 | 311 | 313 | 411 | 413","Gender_Inclusive___vlookup":null,"single_occupancy___vlookup":"104 | 157","Long":-71.40663,"Lat":41.82355,"FID":199}},{"type":"Feature","id":202,"geometry":{"type":"Point","coordinates":[-71.4118194580078,41.8179740905762]},"properties":{"Property_Code":100351,"Property_Name":"Claverick St 055","Property_Abbr":"CLAVST055","Address_Line_1":"55 Claverick St., 3rd Flr","AlL_Restrooms___vlookup":"323 | 324","Single_Sex____vlookup":"323 | 324","Gender_Inclusive___vlookup":null,"single_occupancy___vlookup":null,"Long":-71.41182,"Lat":41.81797,"FID":202}},{"type":"Feature","id":204,"geometry":{"type":"Point","coordinates":[-71.4014358520508,41.8288841247559]},"properties":{"Property_Code":100352,"Property_Name":"Meeting St 205","Property_Abbr":"MEETING205","Address_Line_1":"205 Meeting St","AlL_Restrooms___vlookup":"104A | 104B","Single_Sex____vlookup":"104A | 104B","Gender_Inclusive___vlookup":null,"single_occupancy___vlookup":null,"Long":-71.40144,"Lat":41.82888,"FID":204}},{"type":"Feature","id":205,"geometry":{"type":"Point","coordinates":[-71.4023361206055,41.8282051086426]},"properties":{"Property_Code":100336,"Property_Name":"The Lindemann Performing Arts Center","Property_Abbr":"LINDEMANN","Address_Line_1":"144 Angell St","AlL_Restrooms___vlookup":"302 | 303 | LL101 | LL104 | LL105 | LL207A | LL209A | LL215A | LL317 | LL318 | LL319 | LL320 | LL322 | LL323 | LL324","Single_Sex____vlookup":"LL101 | LL105","Gender_Inclusive___vlookup":null,"single_occupancy___vlookup":"302 | 303 | LL104 | LL207A | LL209A | LL215A | LL317 | LL318 | LL319 | LL320 | LL322 | LL323 | LL324","Long":-71.40234,"Lat":41.82821,"FID":205}},{"type":"Feature","id":206,"geometry":{"type":"Point","coordinates":[-71.4029312133789,41.8280792236328]},"properties":{"Property_Code":100252,"Property_Name":"Peter Green House","Property_Abbr":"PGREENHSE","Address_Line_1":"79 Brown St","AlL_Restrooms___vlookup":"009 | 011 | 106A | 302B","Single_Sex____vlookup":null,"Gender_Inclusive___vlookup":"009 | 011","single_occupancy___vlookup":"106A | 302B","Long":-71.40293,"Lat":41.82808,"FID":206}},{"type":"Feature","id":207,"geometry":{"type":"Point","coordinates":[-71.4029922485352,41.8282699584961]},"properties":{"Property_Code":100210,"Property_Name":"Sharpe House","Property_Abbr":"SHARPEHSE","Address_Line_1":"79 Brown St","AlL_Restrooms___vlookup":"021 | 124 | 224 | 324","Single_Sex____vlookup":null,"Gender_Inclusive___vlookup":"021 | 124 | 224 | 324","single_occupancy___vlookup":null,"Long":-71.40299,"Lat":41.82827,"FID":207}},{"type":"Feature","id":211,"geometry":{"type":"Point","coordinates":[-71.4091033935547,41.8179740905762]},"properties":{"Property_Code":100385,"Property_Name":"Chestnut St 200","Property_Abbr":"CHESTNT200","Address_Line_1":"200 Chestnut St","AlL_Restrooms___vlookup":"111 | 113 | 126 | 128 | 211 | 213","Single_Sex____vlookup":"111 | 113 | 126 | 128 | 211 | 213","Gender_Inclusive___vlookup":null,"single_occupancy___vlookup":null,"Long":-71.4091,"Lat":41.81797,"FID":211}},{"type":"Feature","id":213,"geometry":{"type":"Point","coordinates":[-71.4077529907227,41.8178329467773]},"properties":{"Property_Code":100387,"Property_Name":"Richmond St 300","Property_Abbr":"RICHMND300","Address_Line_1":"300 Richmond St","AlL_Restrooms___vlookup":"149A | 149B | 157 | 249A | 249B | 253 | 274","Single_Sex____vlookup":"149A | 149B | 157 | 249A | 249B","Gender_Inclusive___vlookup":null,"single_occupancy___vlookup":"253 | 274","Long":-71.40775,"Lat":41.81783,"FID":213}},{"type":"Feature","id":216,"geometry":{"type":"Point","coordinates":[-71.4035186767578,41.7983016967773]},"properties":{"Property_Code":100391,"Property_Name":"Pavillion 66","Property_Abbr":"PAVILLION66","Address_Line_1":"66 Pavillion Ave","AlL_Restrooms___vlookup":"213 | 214 | 215","Single_Sex____vlookup":null,"Gender_Inclusive___vlookup":"213","single_occupancy___vlookup":"214 | 215","Long":-71.40352,"Lat":41.7983,"FID":216}},{"type":"Feature","id":221,"geometry":{"type":"Point","coordinates":[-71.400749206543,41.8233833312988]},"properties":{"Property_Code":100273,"Property_Name":"Graduate Center E","Property_Abbr":"GRADCTRE","Address_Line_1":"42 Charlesfield St","AlL_Restrooms___vlookup":"100A | 110 | 127 | 128 | 202 | 203 | 204 | 211 | 214 | 300A | 305 | 400A | 412A","Single_Sex____vlookup":"100A | 110 | 127 | 202 | 203 | 211 | 305 | 412A","Gender_Inclusive___vlookup":"128 | 214 | 300A | 400A","single_occupancy___vlookup":"204","Long":-71.40075,"Lat":41.82338,"FID":221}},{"type":"Feature","id":223,"geometry":{"type":"Point","coordinates":[-71.4037399291992,41.8248443603516]},"properties":{"Property_Code":100282,"Property_Name":"Faculty Club","Property_Abbr":"FACULTCLUB","Address_Line_1":"1 Bannister St","AlL_Restrooms___vlookup":"003 | 005 | 008A | 008B | 106A | 106B | 304","Single_Sex____vlookup":"003 | 005 | 008A | 008B | 106A | 106B","Gender_Inclusive___vlookup":"304","single_occupancy___vlookup":null,"Long":-71.40374,"Lat":41.82484,"FID":223}},{"type":"Feature","id":224,"geometry":{"type":"Point","coordinates":[-71.4029235839844,41.8286628723144]},"properties":{"Property_Code":100091,"Property_Name":"BioMed Center","Property_Abbr":"BIOMEDCTR","Address_Line_1":"171 Meeting St","AlL_Restrooms___vlookup":"006A | 133 | 135 | 137 | 261 | 262 | 306 | 306A | 306C | 306D | 406 | 406A | 406C | 406D | 506 | 506C | 506D | 606 | 606C","Single_Sex____vlookup":"133 | 135 | 261 | 262","Gender_Inclusive___vlookup":"137 | 306 | 306A | 306C | 306D | 406 | 406A | 406C | 406D | 506 | 506C | 506D | 606 | 606C","single_occupancy___vlookup":"006A","Long":-71.40292,"Lat":41.82866,"FID":224}},{"type":"Feature","id":227,"geometry":{"type":"Point","coordinates":[-71.4043960571289,41.827205657959]},"properties":{"Property_Code":100223,"Property_Name":"Robinson Hall","Property_Abbr":"ROBINSON","Address_Line_1":"64 Waterman St","AlL_Restrooms___vlookup":"008 | 010 | 104C","Single_Sex____vlookup":"008 | 010","Gender_Inclusive___vlookup":"104C","single_occupancy___vlookup":null,"Long":-71.4044,"Lat":41.82721,"FID":227}},{"type":"Feature","id":228,"geometry":{"type":"Point","coordinates":[-71.4025421142578,41.8273010253906]},"properties":{"Property_Code":100100,"Property_Name":"Walter Hall","Property_Abbr":"WALTERHALL","Address_Line_1":"80 Waterman St","AlL_Restrooms___vlookup":"006 | 207 | 307","Single_Sex____vlookup":null,"Gender_Inclusive___vlookup":"006 | 207 | 307","single_occupancy___vlookup":null,"Long":-71.40254,"Lat":41.8273,"FID":228}},{"type":"Feature","id":230,"geometry":{"type":"Point","coordinates":[-71.4018096923828,41.8255653381348]},"properties":{"Property_Code":100175,"Property_Name":"Gardner House","Property_Abbr":"GARDNER","Address_Line_1":"106 George St","AlL_Restrooms___vlookup":"104 | 202A | 204 | 207A | 302A | 304","Single_Sex____vlookup":"104 | 202A | 204 | 207A | 302A | 304","Gender_Inclusive___vlookup":null,"single_occupancy___vlookup":null,"Long":-71.40181,"Lat":41.82557,"FID":230}},{"type":"Feature","id":231,"geometry":{"type":"Point","coordinates":[-71.4031372070313,41.8247451782226]},"properties":{"Property_Code":100116,"Property_Name":"Stonewall House","Property_Abbr":"STONEWALL","Address_Line_1":"22 Benevolent St","AlL_Restrooms___vlookup":"116 | 216","Single_Sex____vlookup":null,"Gender_Inclusive___vlookup":null,"single_occupancy___vlookup":"116 | 216","Long":-71.40314,"Lat":41.82475,"FID":231}},{"type":"Feature","id":232,"geometry":{"type":"Point","coordinates":[-71.3994140625,41.8254661560059]},"properties":{"Property_Code":100071,"Property_Name":"Meiklejohn House","Property_Abbr":"MEIKLEJOHN","Address_Line_1":"159 George St","AlL_Restrooms___vlookup":"005B | 106 | 304","Single_Sex____vlookup":"005B","Gender_Inclusive___vlookup":"106 | 304","single_occupancy___vlookup":null,"Long":-71.39941,"Lat":41.82547,"FID":232}},{"type":"Feature","id":233,"geometry":{"type":"Point","coordinates":[-71.3965072631836,41.8234367370605]},"properties":{"Property_Code":100190,"Property_Name":"Dyer House","Property_Abbr":"DYERHSE","Address_Line_1":"150 Power St","AlL_Restrooms___vlookup":"008 | 106 | 203A | 209","Single_Sex____vlookup":null,"Gender_Inclusive___vlookup":"106 | 209","single_occupancy___vlookup":"008 | 203A","Long":-71.39651,"Lat":41.82344,"FID":233}},{"type":"Feature","id":250,"geometry":{"type":"Point","coordinates":[-71.4015350341797,41.8277816772461]},"properties":{"Property_Code":100081,"Property_Name":"Churchill House","Property_Abbr":"CHURCHILL","Address_Line_1":"155 Angell St","AlL_Restrooms___vlookup":"003A | 003B | 025C | 025D | 104 | 220","Single_Sex____vlookup":"003A | 003B","Gender_Inclusive___vlookup":null,"single_occupancy___vlookup":"025C | 025D | 104 | 220","Long":-71.40154,"Lat":41.82778,"FID":250}},{"type":"Feature","id":252,"geometry":{"type":"Point","coordinates":[-71.4025115966797,41.8259086608887]},"properties":{"Property_Code":100013,"Property_Name":"Friedman Hall","Property_Abbr":"FRIEDMAN","Address_Line_1":"90 George St","AlL_Restrooms___vlookup":"105 | 106 | 205 | 206","Single_Sex____vlookup":"106 | 206","Gender_Inclusive___vlookup":"105 | 205","single_occupancy___vlookup":null,"Long":-71.40251,"Lat":41.82591,"FID":252}},{"type":"Feature","id":262,"geometry":{"type":"Point","coordinates":[-71.4356384277344,41.7959175109863]},"properties":{"Property_Code":100098,"Property_Name":"Park Lane 010","Property_Abbr":"PARKLN010","Address_Line_1":"10 Park Ln","AlL_Restrooms___vlookup":"128A | 128B | 136A | 136B | 137A | 139A | 153A | 155 | 155A","Single_Sex____vlookup":"128A | 128B | 136A | 136B | 137A | 139A | 153A | 155","Gender_Inclusive___vlookup":null,"single_occupancy___vlookup":"155A","Long":-71.43564,"Lat":41.79592,"FID":262}}]}