{"type":"FeatureCollection","features":[{"type":"Feature","id":1,"geometry":{"type":"Polygon","coordinates":[[[-71.3941297005885,41.8290751671896],[-71.394389418783,41.8290268014624],[-71.3944392555793,41.8292164064497],[-71.3945082495307,41.8294581982454],[-71.3945645723803,41.8296650785217],[-71.3945806919534,41.8297240259015],[-71.3946510823616,41.8299767201751],[-71.3947128635194,41.8302023576236],[-71.3947595640653,41.8303646387771],[-71.3943537964482,41.8304274935022],[-71.3939859265813,41.8291031521782],[-71.3941297005885,41.8290751671896]]]},"properties":{"FID":1,"Shape_Leng":1217.10895203,"Layer":"L-ATHL-FIELD","Athletic_F":"Varsity Tennis Courts","Shape__Area":55882.739288330078,"Shape__Length":1217.1089520285204}},{"type":"Feature","id":2,"geometry":{"type":"Polygon","coordinates":[[[-71.3964302885382,41.8321484191565],[-71.3956717513219,41.832392176443],[-71.3951720058331,41.8315223131202],[-71.3959305346638,41.831278558187],[-71.3964302885382,41.8321484191565]]]},"properties":{"FID":2,"Shape_Leng":1139.99995214,"Layer":"L-ATHL-FIELD","Athletic_F":"Stevenson-Pincine Field","Shape__Area":77625.004348754883,"Shape__Length":1139.999952148496}},{"type":"Feature","id":3,"geometry":{"type":"MultiPolygon","coordinates":[[[[-71.3910717403741,41.8425821357766],[-71.3916589155157,41.8425798613465],[-71.3916643388918,41.8433619557594],[-71.3910771565984,41.8433642311088],[-71.3910717403741,41.8425821357766]]],[[[-71.3916699252751,41.8425798186106],[-71.3923855463624,41.8425770412008],[-71.3923912648122,41.8434002992557],[-71.3916756345534,41.8434030757895],[-71.3916699252751,41.8425798186106]]]]},"properties":{"FID":3,"Shape_Leng":1879.99921503,"Layer":"L-ATHL-FIELD","Athletic_F":"Marvel Field","Shape__Area":104099.90622711182,"Shape__Length":1879.9992150304583}},{"type":"Feature","id":4,"geometry":{"type":"Polygon","coordinates":[[[-71.3948047293022,41.8427781648307],[-71.3947049524115,41.8428358696349],[-71.3945804880117,41.8427488774656],[-71.3935395912754,41.8420213536393],[-71.3931649590325,41.8417595020218],[-71.3932280687527,41.8417074275866],[-71.3934143724688,41.8418387292994],[-71.3934091492907,41.8417909291613],[-71.3934133235811,41.8417430702179],[-71.3934268069211,41.8416961823716],[-71.3934493074549,41.8416512710251],[-71.3934803455716,41.8416093008895],[-71.3935192515357,41.8415711734749],[-71.3935651920114,41.8415377064076],[-71.3936171797172,41.8415096199349],[-71.3936740975409,41.8414875162404],[-71.3937347250432,41.8414718695659],[-71.3937977589413,41.8414630163268],[-71.3938618468327,41.8414611470414],[-71.3939256112823,41.8414663009511],[-71.3939876847335,41.8414783678536],[-71.3940467323811,41.8414970890238],[-71.3941014882817,41.841522061749],[-71.3941507758028,41.8415527501507],[-71.3950708404171,41.8421991953795],[-71.3951138790585,41.8422326831059],[-71.3951501430148,41.8422703899136],[-71.3951789014714,41.8423115561579],[-71.3951995754284,41.8423553530061],[-71.3952117485147,41.8424008968521],[-71.3952151741785,41.8424472709306],[-71.3952097852944,41.8424935415319],[-71.3951956893232,41.842538774203],[-71.3951752342687,41.8425806608189],[-71.3951474975092,41.8426201359843],[-71.3951129750436,41.8426564951829],[-71.3950722807765,41.8426890916274],[-71.3950261428947,41.8427173434588],[-71.3949753809718,41.8427407454304],[-71.3949209035378,41.842758882412],[-71.3948636791798,41.842771430263],[-71.3948047293022,41.8427781648307]]]},"properties":{"FID":4,"Shape_Leng":1627.3844949,"Layer":"L-ATHL-FIELD","Athletic_F":"Richard Gouse Field at Brown University","Shape__Area":130899.31349182129,"Shape__Length":1626.8951455501347}},{"type":"Feature","id":6,"geometry":{"type":"Polygon","coordinates":[[[-71.3932747809787,41.8298059699106],[-71.3932800491122,41.8298021483647],[-71.393314098995,41.8298264666358],[-71.3933505381803,41.8298487640535],[-71.3935012816109,41.8303023730875],[-71.3928600651625,41.8304226004795],[-71.3925678727798,41.8295433186241],[-71.3930910621687,41.829445221429],[-71.3930993692987,41.8294742912016],[-71.393102119745,41.8295265170222],[-71.3931126885434,41.8295781820037],[-71.3931309395648,41.8296286341719],[-71.3931566427568,41.8296772367695],[-71.3931894753349,41.8297233754604],[-71.3932290205614,41.8297664682321],[-71.3932747809787,41.8298059699106]]]},"properties":{"FID":6,"Shape_Leng":999.543231906,"Layer":"L-ATHL-FIELD","Athletic_F":"Lower Grass Field","Shape__Area":54661.211280822754,"Shape__Length":999.46670302358586}},{"type":"Feature","id":7,"geometry":{"type":"Polygon","coordinates":[[[-71.3943357510354,41.8302608052796],[-71.39433578522,41.8302605145016],[-71.3943358868028,41.830260232789],[-71.3943360521588,41.8302599682415],[-71.3943362764597,41.8302597289576],[-71.3943365524693,41.830259523034],[-71.3943368729558,41.8302593558657],[-71.3943372270762,41.8302592328451],[-71.3943376039904,41.8302591575633],[-71.3943379928597,41.8302591327115],[-71.3943383816461,41.8302591582786],[-71.3943387583115,41.8302592342535],[-71.3943391120263,41.8302593579253],[-71.3943394319621,41.8302595256826],[-71.3943397072935,41.8302597321135],[-71.3943399308068,41.8302599718092],[-71.3943400952923,41.8302602366601],[-71.3943401959482,41.8302605185588],[-71.3943402291764,41.8302608093988],[-71.3943401949918,41.8302611001768],[-71.3943400934091,41.8302613818894],[-71.394339928053,41.8302616464369],[-71.3943397037522,41.8302618857207],[-71.3943394277426,41.8302620916445],[-71.3943391072561,41.8302622588127],[-71.3943387531356,41.8302623818334],[-71.3943383762214,41.8302624571151],[-71.3943379873521,41.8302624819669],[-71.3943375985657,41.8302624563998],[-71.3943372219003,41.8302623804249],[-71.3943368681855,41.8302622567531],[-71.3943365482497,41.8302620889958],[-71.3943362729182,41.8302618825649],[-71.394336049405,41.8302616428692],[-71.3943358849195,41.8302613780183],[-71.3943357842636,41.8302610961196],[-71.3943357510354,41.8302608052796]]]},"properties":{"FID":7,"Shape_Leng":3.83468202476,"Layer":"L-ATHL-FIELD","Athletic_F":" ","Shape__Area":1.1641921997070313,"Shape__Length":3.8297753936490762}},{"type":"Feature","id":8,"geometry":{"type":"Polygon","coordinates":[[[-71.3941380860914,41.8327146259268],[-71.3935849498842,41.8317573817948],[-71.3948311808645,41.8313545800079],[-71.3953843321961,41.8323118182233],[-71.3941380860914,41.8327146259268]]]},"properties":{"FID":8,"Shape_Leng":1499.9998437,"Layer":"L-ATHL-FIELD","Athletic_F":"Berylson Family Field","Shape__Area":140599.97093200684,"Shape__Length":1499.9998437014858}},{"type":"Feature","id":9,"geometry":{"type":"MultiPolygon","coordinates":[[[[-71.3991355677683,41.8299536803313],[-71.3993508656684,41.8299375865476],[-71.3993616457341,41.8300182501523],[-71.3991463475664,41.8300343439557],[-71.3991355677683,41.8299536803313]]],[[[-71.398890156413,41.8299715244782],[-71.3991054532296,41.8299554311536],[-71.3991162329903,41.8300360947807],[-71.3989009347021,41.830052188124],[-71.398890156413,41.8299715244782]]]]},"properties":{"FID":9,"Shape_Leng":354.039785854,"Layer":"L-ATHL-FIELD","Athletic_F":"Pembroke Field","Shape__Area":3483.9609832763672,"Shape__Length":354.03978585367292}},{"type":"Feature","id":10,"geometry":{"type":"Polygon","coordinates":[[[-71.3950192830012,41.8312647704224],[-71.3947954857006,41.830458694065],[-71.3954421475975,41.8303582655789],[-71.39566595387,41.8311643407004],[-71.3950192830012,41.8312647704224]]]},"properties":{"FID":10,"Shape_Leng":960.000027269,"Layer":"L-ATHL-FIELD","Athletic_F":"Goldberger Family Field","Shape__Area":53999.998146057129,"Shape__Length":960.00002725879335}},{"type":"Feature","id":11,"geometry":{"type":"Polygon","coordinates":[[[-71.3941608178979,41.8309734019354],[-71.3941613269538,41.8309691131907],[-71.3941628229211,41.8309649568048],[-71.3941652622576,41.8309610569842],[-71.3941685701294,41.8309575334051],[-71.3941726452395,41.8309544931142],[-71.3941773646477,41.8309520278328],[-71.3941825849756,41.8309502130573],[-71.3941881472278,41.8309491044621],[-71.3941938816133,41.8309487343029],[-71.3941996159662,41.8309491150259],[-71.3942051733467,41.8309502338634],[-71.3942103876819,41.8309520582503],[-71.3942150989566,41.8309545322182],[-71.3942191640416,41.830957580007],[-71.3942224602988,41.8309611096692],[-71.3942248867843,41.8309650139717],[-71.3942263690584,41.8309691731008],[-71.3942268639882,41.8309734627703],[-71.3942263549366,41.8309777515153],[-71.3942248589732,41.830981907902],[-71.3942224196395,41.8309858077239],[-71.3942191117692,41.8309893313046],[-71.394215036659,41.8309923715971],[-71.3942103172493,41.8309948368799],[-71.3942050969186,41.8309966516567],[-71.3941995358664,41.8309977602538],[-71.3941938002727,41.8309981304122],[-71.3941880671193,41.83099774969],[-71.3941825085312,41.8309966308506],[-71.3941772941931,41.8309948064625],[-71.3941725829169,41.830992332493],[-71.394168517832,41.8309892847026],[-71.3941652215763,41.8309857550388],[-71.3941627950937,41.8309818507351],[-71.3941613128234,41.8309776916051],[-71.3941608178979,41.8309734019354]]]},"properties":{"FID":11,"Shape_Leng":56.5486677646,"Layer":"L-ATHL-FIELD","Athletic_F":" ","Shape__Area":253.17852020263672,"Shape__Length":56.476865477040818}},{"type":"Feature","id":12,"geometry":{"type":"Polygon","coordinates":[[[-71.3944112103295,41.8310189446179],[-71.3943895791526,41.8310158824878],[-71.3943923078762,41.831005097138],[-71.3944139402549,41.8310081583683],[-71.3944112103295,41.8310189446179]]]},"properties":{"FID":12,"Shape_Leng":20.0003872956,"Layer":"L-ATHL-FIELD","Athletic_F":" ","Shape__Area":24.001014709472656,"Shape__Length":20.000387297569862}},{"type":"Feature","id":13,"geometry":{"type":"Polygon","coordinates":[[[-71.3944155881537,41.831001642331],[-71.394393956981,41.830998581102],[-71.3943966857031,41.830987795752],[-71.3944183180761,41.8309908569815],[-71.3944155881537,41.831001642331]]]},"properties":{"FID":13,"Shape_Leng":20.0000042585,"Layer":"L-ATHL-FIELD","Athletic_F":" ","Shape__Area":23.999916076660156,"Shape__Length":20.000004259832338}},{"type":"Feature","id":14,"geometry":{"type":"Polygon","coordinates":[[[-71.393037494753,41.8308792745071],[-71.3930997667158,41.8306348112719],[-71.3937279901562,41.8302690391267],[-71.3937381190671,41.830263149477],[-71.3943084815691,41.8307495048038],[-71.3944448113558,41.8308994546319],[-71.3945229038923,41.830985349355],[-71.3945145656775,41.8310194330243],[-71.3945064904528,41.8310524383284],[-71.39439202966,41.8311106471916],[-71.3941959463035,41.8312103656319],[-71.3940338611002,41.831245608538],[-71.3937436693202,41.8313408123856],[-71.3934121407731,41.8315094069689],[-71.3933942536722,41.8314793226605],[-71.393037494753,41.8308792745071]]]},"properties":{"FID":14,"Shape_Leng":1270.9519374,"Layer":"L-ATHL-FIELD","Athletic_F":"Terrence Murray Baseball Stadium","Shape__Area":104653.09687805176,"Shape__Length":1270.9519374007659}},{"type":"Feature","id":15,"geometry":{"type":"Polygon","coordinates":[[[-71.3938246296551,41.8314204618792],[-71.3938172745945,41.8314078908546],[-71.3938267983857,41.8314047745823],[-71.3938341522454,41.8314173447049],[-71.3938246296551,41.8314204618792]]]},"properties":{"FID":15,"Shape_Leng":15.6661069857,"Layer":"L-ATHL-FIELD","Athletic_F":" ","Shape__Area":14.165184020996094,"Shape__Length":15.666106984121596}},{"type":"Feature","id":16,"geometry":{"type":"Polygon","coordinates":[[[-71.3938098894235,41.8313953306057],[-71.393802535571,41.8313827604815],[-71.3938120581568,41.831379643309],[-71.3938194132131,41.831392214334],[-71.3938098894235,41.8313953306057]]]},"properties":{"FID":16,"Shape_Leng":15.6661069759,"Layer":"L-ATHL-FIELD","Athletic_F":" ","Shape__Area":14.165176391601563,"Shape__Length":15.666106978321409}},{"type":"Feature","id":17,"geometry":{"type":"Polygon","coordinates":[[[-71.3940726445707,41.830462851085],[-71.3940864478741,41.8304538127068],[-71.3940932951163,41.8304596622188],[-71.3940794918126,41.8304687005978],[-71.3940726445707,41.830462851085]]]},"properties":{"FID":17,"Shape_Leng":15.6660136843,"Layer":"L-ATHL-FIELD","Athletic_F":" ","Shape__Area":14.165077209472656,"Shape__Length":15.666013684374329}},{"type":"Feature","id":18,"geometry":{"type":"Polygon","coordinates":[[[-71.3941002295363,41.8304447553999],[-71.3941140328319,41.8304357170184],[-71.3941208800747,41.8304415665288],[-71.3941070767788,41.8304506049111],[-71.3941002295363,41.8304447553999]]]},"properties":{"FID":18,"Shape_Leng":15.6660136843,"Layer":"L-ATHL-FIELD","Athletic_F":" ","Shape__Area":14.165069580078125,"Shape__Length":15.666013683625414}},{"type":"Feature","id":19,"geometry":{"type":"Polygon","coordinates":[[[-71.39383644081,41.8293553638376],[-71.3938456760816,41.8293598425556],[-71.3938317023834,41.8293759601145],[-71.3938224671104,41.8293714813955],[-71.3938293731528,41.8293635161773],[-71.39383644081,41.8293553638376]]]},"properties":{"FID":19,"Shape_Leng":19.9995083088,"Layer":"L-ATHL-FIELD","Athletic_F":" ","Shape__Area":20.998283386230469,"Shape__Length":19.999508320683496}},{"type":"Feature","id":20,"geometry":{"type":"Polygon","coordinates":[[[-71.3937128243708,41.8294577558178],[-71.3937132760772,41.8294539442006],[-71.3937146075606,41.8294502486408],[-71.3937167752969,41.8294467825408],[-71.3937197153126,41.8294436502807],[-71.3937233371644,41.829440948113],[-71.3937275323774,41.8294387569679],[-71.3937321720366,41.8294371433511],[-71.3937371164193,41.8294361575522],[-71.3937422137997,41.8294358291421],[-71.3937473100783,41.8294361669816],[-71.3937522511856,41.8294371619247],[-71.3937568854939,41.8294387841202],[-71.3937610734474,41.82944098302],[-71.3937646863512,41.82944369188],[-71.3937676159987,41.8294468295697],[-71.3937697734688,41.8294502996706],[-71.3937710915221,41.8294539976813],[-71.3937715306211,41.8294578101226],[-71.3937710789181,41.8294616217401],[-71.3937697486415,41.8294653173016],[-71.3937675797037,41.8294687834015],[-71.3937646396891,41.8294719156628],[-71.3937610178373,41.8294746178318],[-71.3937568226231,41.8294768089781],[-71.3937521829617,41.8294784225959],[-71.3937472385759,41.8294794083954],[-71.3937421411921,41.8294797368058],[-71.3937370449101,41.829479398966],[-71.3937321037998,41.8294784040222],[-71.3937274694893,41.8294767818257],[-71.3937232815346,41.8294745829247],[-71.3937196686307,41.8294718740635],[-71.3937167389844,41.8294687363726],[-71.3937145827204,41.8294652662718],[-71.3937132634663,41.8294615682593],[-71.3937128243708,41.8294577558178]]]},"properties":{"FID":20,"Shape_Leng":50.2654824574,"Layer":"L-ATHL-FIELD","Athletic_F":" ","Shape__Area":200.04405212402344,"Shape__Length":50.201875367944254}},{"type":"Feature","id":21,"geometry":{"type":"Polygon","coordinates":[[[-71.393756054126,41.8293096459305],[-71.3937561957343,41.8293084549129],[-71.3937566117458,41.8293073001628],[-71.3937572888606,41.8293062167809],[-71.3937582077632,41.829305238062],[-71.3937593395136,41.8293043936904],[-71.3937606503643,41.8293037088445],[-71.3937621005546,41.8293032050955],[-71.3937636455208,41.8293028968077],[-71.3937652382989,41.8293027938414],[-71.3937668307316,41.8293028997535],[-71.3937683746737,41.8293032108979],[-71.3937698231939,41.8293037173277],[-71.3937711317761,41.8293044045962],[-71.3937722607311,41.8293052510585],[-71.3937731763947,41.8293062314741],[-71.3937738499252,41.8293073161051],[-71.3937742621171,41.8293084716212],[-71.3937743997869,41.829309662897],[-71.3937742581789,41.8293108539145],[-71.3937738421678,41.8293120086647],[-71.3937731650531,41.8293130920467],[-71.3937722461507,41.8293140707658],[-71.3937711144002,41.8293149151375],[-71.3937698035495,41.8293155999836],[-71.3937683533589,41.8293161037326],[-71.3937668083925,41.8293164120204],[-71.393765215614,41.8293165149867],[-71.3937636231809,41.8293164090747],[-71.3937620792386,41.8293160979301],[-71.3937606307182,41.8293155915003],[-71.3937593221358,41.8293149042317],[-71.3937581931808,41.8293140577692],[-71.3937572775174,41.8293130773536],[-71.3937566039871,41.8293119927224],[-71.3937561917954,41.8293108372063],[-71.393756054126,41.8293096459305]]]},"properties":{"FID":21,"Shape_Leng":15.7079632679,"Layer":"L-ATHL-FIELD","Athletic_F":" ","Shape__Area":19.534111022949219,"Shape__Length":15.687505900489027}},{"type":"Feature","id":22,"geometry":{"type":"Polygon","coordinates":[[[-71.3939043192247,41.8293842112887],[-71.3939044608305,41.829383020271],[-71.3939048768398,41.8293818655203],[-71.3939055539529,41.8293807821376],[-71.3939064728543,41.8293798034174],[-71.3939076046041,41.8293789590444],[-71.3939089154547,41.8293782741968],[-71.3939103656455,41.829377770446],[-71.3939119106128,41.8293774621562],[-71.3939135033925,41.8293773591879],[-71.3939150958273,41.8293774650979],[-71.3939166397719,41.8293777762403],[-71.393918088295,41.8293782826682],[-71.3939193968802,41.829378969935],[-71.3939205258386,41.8293798163958],[-71.3939214415055,41.8293807968102],[-71.3939221150393,41.8293818814403],[-71.3939225272344,41.8293830369559],[-71.393922664907,41.8293842282315],[-71.3939225233016,41.8293854192492],[-71.3939221072926,41.829386574],[-71.3939214301797,41.8293876573828],[-71.3939205112784,41.829388636103],[-71.3939193795286,41.8293894804762],[-71.3939180686779,41.8293901653239],[-71.3939166184869,41.8293906690749],[-71.3939150735193,41.8293909773647],[-71.3939134807393,41.829391080333],[-71.3939118883041,41.829390974423],[-71.3939103443592,41.8293906632805],[-71.3939088958359,41.8293901568525],[-71.3939075872505,41.8293894695856],[-71.3939064582922,41.8293886231246],[-71.3939055426254,41.8293876427101],[-71.3939048690919,41.8293865580799],[-71.3939044568971,41.8293854025643],[-71.3939043192247,41.8293842112887]]]},"properties":{"FID":22,"Shape_Leng":15.7079632679,"Layer":"L-ATHL-FIELD","Athletic_F":" ","Shape__Area":19.534080505371094,"Shape__Length":15.687505901912596}},{"type":"Feature","id":23,"geometry":{"type":"Polygon","coordinates":[[[-71.3938195086817,41.8293471515015],[-71.3938287439495,41.8293516311212],[-71.3938216714692,41.8293597879576],[-71.3938147702488,41.8293677486781],[-71.3938055349781,41.8293632699577],[-71.3938195086817,41.8293471515015]]]},"properties":{"FID":23,"Shape_Leng":19.9999619809,"Layer":"L-ATHL-FIELD","Athletic_F":" ","Shape__Area":20.999076843261719,"Shape__Length":19.999961982752197}},{"type":"Feature","id":24,"geometry":{"type":"MultiPolygon","coordinates":[[[[-71.3939617011301,41.8300623941376],[-71.3939654814696,41.8300624885751],[-71.3939583061272,41.8300636406875],[-71.3939617011301,41.8300623941376]]],[[[-71.393965096059,41.8300611476147],[-71.3939617011301,41.8300623941376],[-71.3939579219205,41.8300622997283],[-71.393965096059,41.8300611476147]]]]},"properties":{"FID":24,"Shape_Leng":8.12286084797,"Layer":"L-ATHL-FIELD","Athletic_F":" ","Shape__Area":0.49976348876953125,"Shape__Length":8.1228608398376068}},{"type":"Feature","id":25,"geometry":{"type":"Polygon","coordinates":[[[-71.3939221609006,41.8300694397098],[-71.3939217791037,41.8300680978523],[-71.3939289556362,41.8300669547466],[-71.3939293386355,41.8300682975055],[-71.3939221609006,41.8300694397098]]]},"properties":{"FID":25,"Shape_Leng":4.99999940991,"Layer":"L-ATHL-FIELD","Athletic_F":" ","Shape__Area":1.0001754760742188,"Shape__Length":4.9999994078897041}},{"type":"Feature","id":26,"geometry":{"type":"MultiPolygon","coordinates":[[[[-71.3932563035154,41.8293576658768],[-71.3932579701709,41.8293602050586],[-71.3932578438736,41.8293630324282],[-71.3932563035154,41.8293576658768]]],[[[-71.3932580964305,41.829357378534],[-71.3932596367903,41.829362744185],[-71.3932579701709,41.8293602050586],[-71.3932580964305,41.829357378534]]]]},"properties":{"FID":26,"Shape_Leng":8.12286085777,"Layer":"L-ATHL-FIELD","Athletic_F":" ","Shape__Area":0.499755859375,"Shape__Length":8.1228608443660022}},{"type":"Feature","id":27,"geometry":{"type":"Polygon","coordinates":[[[-71.3932485503009,41.8293306313958],[-71.393250344416,41.829330345855],[-71.3932518727322,41.8293357141959],[-71.3932500774131,41.8293359997357],[-71.3932485503009,41.8293306313958]]]},"properties":{"FID":27,"Shape_Leng":5.00025147419,"Layer":"L-ATHL-FIELD","Athletic_F":" ","Shape__Area":1.00018310546875,"Shape__Length":5.0002514644736493}},{"type":"Feature","id":28,"geometry":{"type":"Polygon","coordinates":[[[-71.3940710984097,41.8298811587302],[-71.3939814063895,41.8298954976131],[-71.393913720824,41.829915736865],[-71.3938432935363,41.8299298017201],[-71.393771127637,41.8299374932259],[-71.3936982513727,41.8299387006886],[-71.393625701263,41.8299334070598],[-71.3935545100622,41.8299216880256],[-71.393485692315,41.8299037101913],[-71.393420227504,41.8298797301663],[-71.3933590480204,41.8298500882495],[-71.3933030259217,41.8298152084171],[-71.3932529561002,41.8297755848009],[-71.3932095538721,41.8297317834865],[-71.3931734357424,41.8296844271888],[-71.3931451170054,41.8296341907478],[-71.3931249997282,41.8295817885121],[-71.3931133715601,41.8295279671346],[-71.3931103973272,41.8294734938599],[-71.3930912206723,41.8294063890564],[-71.393514077458,41.8293387990315],[-71.3938460019336,41.8292857440575],[-71.3939097780008,41.8293166440887],[-71.3939806928829,41.829564781759],[-71.3940710984097,41.8298811587302]]]},"properties":{"FID":28,"Shape_Leng":829.358988903,"Layer":"L-ATHL-FIELD","Athletic_F":"Brown Softball Field","Shape__Area":46157.380142211914,"Shape__Length":829.15828623377092}},{"type":"Feature","id":29,"geometry":{"type":"Polygon","coordinates":[[[-71.393902872347,41.8301372858384],[-71.3939015640337,41.8301356955319],[-71.3939006194953,41.8301339678096],[-71.3939000627333,41.8301321477105],[-71.3938999093154,41.8301302847677],[-71.3939001627725,41.8301284276027],[-71.393900817004,41.8301266257286],[-71.3939018550763,41.830124927748],[-71.3939032480238,41.830123378651],[-71.393904958462,41.8301220189184],[-71.3939069429916,41.8301208863244],[-71.3939091461903,41.8301200096285],[-71.393911511441,41.8301194121873],[-71.3939139749141,41.8301191110482],[-71.3941131877611,41.8300872671002],[-71.3941149099817,41.8300867897074],[-71.3941167136956,41.8300865338731],[-71.3941185495352,41.8300865067545],[-71.3941203645333,41.8300867083026],[-71.3941221105456,41.8300871339716],[-71.3941237370348,41.8300877702097],[-71.394125199487,41.8300886007697],[-71.3941264558079,41.8300896022041],[-71.3941274723386,41.8300907456711],[-71.3941282190346,41.8300920005313],[-71.3941286766959,41.8300933298533],[-71.3941288309348,41.8300946985105],[-71.3941351954142,41.8302547189003],[-71.3941392879727,41.8302892866801],[-71.3941487552994,41.8303232588864],[-71.3941490853122,41.8303246169015],[-71.3941491083184,41.8303259971422],[-71.394148821974,41.8303273608916],[-71.3941482359731,41.8303286694443],[-71.3941473648223,41.8303298858996],[-71.3941462350601,41.8303309769696],[-71.3941448768319,41.8303319120703],[-71.3941433287055,41.8303326633269],[-71.394141635254,41.830333210973],[-71.3941398434512,41.8303335397461],[-71.3941380026693,41.830333639788],[-71.3941361658814,41.8303335075461],[-71.3941343836385,41.8303331484691],[-71.3941327064854,41.8303325716069],[-71.3941311825476,41.83033179321],[-71.394129853921,41.8303308358256],[-71.393902872347,41.8301372858384]]]},"properties":{"FID":29,"Shape_Leng":255.89990905,"Layer":"L-ATHL-FIELD","Athletic_F":"Flanders Family Field","Shape__Area":3082.9177551269531,"Shape__Length":255.85896603984162}}]}